{"features":[{"type":"Feature","geometry":{"type":"MultiLineString","coordinates":[[[139.698906,35.658403],[139.70009,35.658587],[139.700593,35.658662]]]},"properties":{"事業者種別":"民営鉄道","行政区域":"13113","路線名":"井の頭線","運営会社":"京王電鉄","鉄道区分":"普通鉄道"}},{"type":"Feature","geometry":{"type":"MultiLineString","coordinates":[[[139.69357,35.6572],[139.69341,35.65718],[139.69334,35.65718],[139.69269,35.65716]]]},"properties":{"事業者種別":"民営鉄道","行政区域":"13113","路線名":"井の頭線","運営会社":"京王電鉄","鉄道区分":"普通鉄道"}},{"type":"Feature","geometry":{"type":"MultiLineString","coordinates":[[[139.69357,35.6572],[139.694,35.65724],[139.69562,35.65767],[139.69644,35.65786],[139.69787,35.65821],[139.698492,35.658331],[139.698906,35.658403]]]},"properties":{"事業者種別":"民営鉄道","行政区域":"13113","路線名":"井の頭線","運営会社":"京王電鉄","鉄道区分":"普通鉄道"}},{"type":"Feature","geometry":{"type":"MultiLineString","coordinates":[[[139.69056099136247,35.657075737889585],[139.69074,35.65708],[139.69269,35.65716]]]},"properties":{"事業者種別":"民営鉄道","行政区域":"13113","路線名":"井の頭線","運営会社":"京王電鉄","鉄道区分":"普通鉄道"}},{"type":"Feature","geometry":{"type":"MultiLineString","coordinates":[[[139.69930576770062,35.68870434745557],[139.69791,35.68815]]]},"properties":{"事業者種別":"民営鉄道","行政区域":"13113","路線名":"京王線","運営会社":"京王電鉄","鉄道区分":"普通鉄道"}},{"type":"Feature","geometry":{"type":"MultiLineString","coordinates":[[[139.68792,35.68114],[139.68706,35.68058],[139.68628,35.68013],[139.6856,35.67985],[139.68429,35.67941],[139.68379,35.67922],[139.68279,35.67886],[139.68246,35.67874],[139.68154,35.67831],[139.6803,35.6777],[139.67946,35.67727],[139.67892,35.6771],[139.67821,35.6769]]]},"properties":{"事業者種別":"民営鉄道","行政区域":"13113","路線名":"京王線","運営会社":"京王電鉄","鉄道区分":"普通鉄道"}},{"type":"Feature","geometry":{"type":"MultiLineString","coordinates":[[[139.68862,35.6817],[139.68792,35.68114]]]},"properties":{"事業者種別":"民営鉄道","行政区域":"13113","路線名":"京王線","運営会社":"京王電鉄","鉄道区分":"普通鉄道"}},{"type":"Feature","geometry":{"type":"MultiLineString","coordinates":[[[139.66789,35.67388],[139.67217,35.67533],[139.67349,35.67578]]]},"properties":{"事業者種別":"民営鉄道","行政区域":"13113","路線名":"京王線","運営会社":"京王電鉄","鉄道区分":"普通鉄道"}},{"type":"Feature","geometry":{"type":"MultiLineString","coordinates":[[[139.69791,35.68815],[139.6975078655135,35.68798467804444]],[[139.69078014898005,35.684064593209335],[139.69072,35.68402],[139.69042,35.68367],[139.69012,35.68332],[139.68981,35.68295],[139.68944,35.6826],[139.68918,35.68227],[139.68896,35.682],[139.68862,35.6817]]]},"properties":{"事業者種別":"民営鉄道","行政区域":"13113","路線名":"京王線","運営会社":"京王電鉄","鉄道区分":"普通鉄道"}},{"type":"Feature","geometry":{"type":"MultiLineString","coordinates":[[[139.67723,35.67662],[139.67624,35.67641],[139.6751,35.67613],[139.67416,35.6759],[139.67384,35.67576],[139.67349,35.67578]]]},"properties":{"事業者種別":"民営鉄道","行政区域":"13113","路線名":"京王線","運営会社":"京王電鉄","鉄道区分":"普通鉄道"}},{"type":"Feature","geometry":{"type":"MultiLineString","coordinates":[[[139.67821,35.6769],[139.67723,35.67662]]]},"properties":{"事業者種別":"民営鉄道","行政区域":"13113","路線名":"京王線","運営会社":"京王電鉄","鉄道区分":"普通鉄道"}},{"type":"Feature","geometry":{"type":"MultiLineString","coordinates":[[[139.66789,35.67388],[139.66646,35.67344]]]},"properties":{"事業者種別":"民営鉄道","行政区域":"13113","路線名":"京王線","運営会社":"京王電鉄","鉄道区分":"普通鉄道"}},{"type":"Feature","geometry":{"type":"MultiLineString","coordinates":[[[139.66646,35.67344],[139.66427,35.67274],[139.66177,35.67189],[139.6615051656288,35.67179978169772]]]},"properties":{"事業者種別":"民営鉄道","行政区域":"13113","路線名":"京王線","運営会社":"京王電鉄","鉄道区分":"普通鉄道"}},{"type":"Feature","geometry":{"type":"MultiLineString","coordinates":[[[139.69929026777638,35.68870558168945],[139.69931,35.68838],[139.69921,35.68831],[139.69914,35.68826],[139.69895,35.68813],[139.69829,35.68788],[139.69826,35.68786],[139.6973,35.68744],[139.69655,35.68709],[139.69567,35.68688],[139.69516,35.68657],[139.6946,35.6862],[139.69407,35.68577],[139.69352,35.6853],[139.69302,35.68481],[139.69255,35.68437],[139.69191,35.68391],[139.69138,35.68361],[139.6904,35.68312],[139.68948,35.68264],[139.68914,35.6824],[139.68854,35.68195],[139.68803,35.68149],[139.68762,35.68117],[139.68697,35.68073],[139.68656,35.68048],[139.68636,35.68036],[139.68575,35.68006],[139.68423,35.67956],[139.68357,35.67932],[139.68278,35.67905],[139.68239,35.67891],[139.68183,35.67865],[139.68051,35.67798],[139.6794,35.67741],[139.6785,35.67713],[139.6775,35.67684],[139.67659,35.67664],[139.67519,35.67635],[139.67349,35.67578]]]},"properties":{"事業者種別":"民営鉄道","行政区域":"13113","路線名":"京王線","運営会社":"京王電鉄","鉄道区分":"普通鉄道"}},{"type":"Feature","geometry":{"type":"MultiLineString","coordinates":[[[139.69817,35.68316],[139.69885,35.68372],[139.69913,35.68395]]]},"properties":{"事業者種別":"民営鉄道","行政区域":"13113","路線名":"小田原線","運営会社":"小田急電鉄","鉄道区分":"普通鉄道"}},{"type":"Feature","geometry":{"type":"MultiLineString","coordinates":[[[139.7000679867806,35.68846567962716],[139.70014,35.68823],[139.70028,35.68788],[139.70064,35.687],[139.70074,35.68672],[139.70084,35.68636],[139.70086,35.686],[139.70079,35.68568],[139.70064,35.68536],[139.70038,35.685],[139.70001,35.68463],[139.69913,35.68395]]]},"properties":{"事業者種別":"民営鉄道","行政区域":"13113","路線名":"小田原線","運営会社":"小田急電鉄","鉄道区分":"普通鉄道"}},{"type":"Feature","geometry":{"type":"MultiLineString","coordinates":[[[139.69388,35.67908],[139.69465,35.68015],[139.69509,35.68067],[139.69537,35.68093],[139.69665,35.68197],[139.69694,35.6822],[139.69817,35.68316]]]},"properties":{"事業者種別":"民営鉄道","行政区域":"13113","路線名":"小田原線","運営会社":"小田急電鉄","鉄道区分":"普通鉄道"}},{"type":"Feature","geometry":{"type":"MultiLineString","coordinates":[[[139.68843,35.66945],[139.68867,35.66951],[139.68883,35.66957],[139.68908,35.6697],[139.68927,35.66981],[139.68939,35.6699],[139.68964,35.67007]]]},"properties":{"事業者種別":"民営鉄道","行政区域":"13113","路線名":"小田原線","運営会社":"小田急電鉄","鉄道区分":"普通鉄道"}},{"type":"Feature","geometry":{"type":"MultiLineString","coordinates":[[[139.6736697389492,35.66588684738531],[139.67422,35.66624],[139.67483,35.66654],[139.67534,35.66678],[139.67708,35.66765],[139.67869,35.66845],[139.67877,35.66849]]]},"properties":{"事業者種別":"民営鉄道","行政区域":"13113","路線名":"小田原線","運営会社":"小田急電鉄","鉄道区分":"普通鉄道"}},{"type":"Feature","geometry":{"type":"MultiLineString","coordinates":[[[139.69329,35.67813],[139.69388,35.67908]]]},"properties":{"事業者種別":"民営鉄道","行政区域":"13113","路線名":"小田原線","運営会社":"小田急電鉄","鉄道区分":"普通鉄道"}},{"type":"Feature","geometry":{"type":"MultiLineString","coordinates":[[[139.68843,35.66945],[139.68807,35.6694],[139.68794,35.66942],[139.68781,35.66944],[139.68713,35.66955],[139.68657,35.66963],[139.68606,35.6697]]]},"properties":{"事業者種別":"民営鉄道","行政区域":"13113","路線名":"小田原線","運営会社":"小田急電鉄","鉄道区分":"普通鉄道"}},{"type":"Feature","geometry":{"type":"MultiLineString","coordinates":[[[139.68964,35.67007],[139.69,35.67056],[139.69014,35.67084],[139.69024,35.67116],[139.69042,35.67187],[139.69057,35.67242],[139.69077,35.67314],[139.69091,35.67356],[139.69108,35.674],[139.69125,35.67443],[139.69149,35.6749],[139.69173,35.67538],[139.69196,35.67584],[139.69231,35.67647],[139.69283,35.67735],[139.69307,35.67777],[139.69329,35.67813]]]},"properties":{"事業者種別":"民営鉄道","行政区域":"13113","路線名":"小田原線","運営会社":"小田急電鉄","鉄道区分":"普通鉄道"}},{"type":"Feature","geometry":{"type":"MultiLineString","coordinates":[[[139.681,35.66954],[139.68107,35.66957],[139.68202,35.6699],[139.68228,35.66999],[139.68262,35.67008],[139.68298,35.67015],[139.68332,35.67021],[139.68365,35.67022],[139.68394,35.67022],[139.68417,35.67019],[139.68449,35.67012],[139.6851,35.66998],[139.68541,35.6699],[139.68603,35.66971],[139.68606,35.6697]]]},"properties":{"事業者種別":"民営鉄道","行政区域":"13113","路線名":"小田原線","運営会社":"小田急電鉄","鉄道区分":"普通鉄道"}},{"type":"Feature","geometry":{"type":"MultiLineString","coordinates":[[[139.67877,35.66849],[139.67922,35.6687],[139.67954,35.66886],[139.681,35.66954]]]},"properties":{"事業者種別":"民営鉄道","行政区域":"13113","路線名":"小田原線","運営会社":"小田急電鉄","鉄道区分":"普通鉄道"}},{"type":"Feature","geometry":{"type":"MultiLineString","coordinates":[[[139.7021,35.65945],[139.69997,35.65945]]]},"properties":{"事業者種別":"民営鉄道","行政区域":"13113","路線名":"田園都市線","運営会社":"東急電鉄","鉄道区分":"普通鉄道"}},{"type":"Feature","geometry":{"type":"MultiLineString","coordinates":[[[139.69997,35.65945],[139.69954,35.65944],[139.69913,35.65936],[139.69807,35.65909],[139.6976,35.65892],[139.69738,35.65878],[139.69712,35.65858],[139.69686,35.65835],[139.6965,35.65794],[139.69644,35.65786],[139.6961,35.65742],[139.69575,35.65693],[139.6952,35.65612],[139.69481,35.65558],[139.6937,35.65434],[139.69341,35.65404],[139.69325452989688,35.65393117092782]]]},"properties":{"事業者種別":"民営鉄道","行政区域":"13113","路線名":"田園都市線","運営会社":"東急電鉄","鉄道区分":"普通鉄道"}},{"type":"Feature","geometry":{"type":"MultiLineString","coordinates":[[[139.702926,35.658263],[139.702524,35.659078],[139.702303,35.659955]]]},"properties":{"事業者種別":"民営鉄道","行政区域":"13113","路線名":"東横線","運営会社":"東急電鉄","鉄道区分":"普通鉄道"}},{"type":"Feature","geometry":{"type":"MultiLineString","coordinates":[[[139.70177035822746,35.6468745927664],[139.7018,35.6469],[139.7031,35.648],[139.70316,35.64805]]]},"properties":{"事業者種別":"民営鉄道","行政区域":"13113","路線名":"東横線","運営会社":"東急電鉄","鉄道区分":"普通鉄道"}},{"type":"Feature","geometry":{"type":"MultiLineString","coordinates":[[[139.70382,35.64845],[139.70434,35.64892],[139.7046,35.64926],[139.70518,35.65034],[139.70565,35.65113],[139.70597,35.65158],[139.70663,35.6525],[139.706933,35.65292],[139.707077,35.653185],[139.707118,35.653355],[139.70713,35.653503],[139.707135,35.653664],[139.707118,35.653813],[139.707077,35.653946],[139.707041,35.654065],[139.706987,35.65417],[139.706922,35.654291],[139.706844,35.65439],[139.706677,35.654568],[139.70616,35.655074],[139.705711,35.655482],[139.705391,35.655975],[139.70501,35.656556],[139.704344,35.65706],[139.703477,35.657717],[139.702926,35.658263]]]},"properties":{"事業者種別":"民営鉄道","行政区域":"13113","路線名":"東横線","運営会社":"東急電鉄","鉄道区分":"普通鉄道"}},{"type":"Feature","geometry":{"type":"MultiLineString","coordinates":[[[139.70316,35.64805],[139.70382,35.64845]]]},"properties":{"事業者種別":"民営鉄道","行政区域":"13113","路線名":"東横線","運営会社":"東急電鉄","鉄道区分":"普通鉄道"}},{"type":"Feature","geometry":{"type":"MultiLineString","coordinates":[[[139.70808,35.64646],[139.70828,35.6466],[139.70864,35.6469],[139.70924,35.6477]]]},"properties":{"事業者種別":"民営鉄道","行政区域":"13113","路線名":"2号線日比谷線","運営会社":"東京地下鉄","鉄道区分":"普通鉄道"}},{"type":"Feature","geometry":{"type":"MultiLineString","coordinates":[[[139.70211475889622,35.64653571359143],[139.70261,35.64665],[139.70312,35.64652],[139.70436,35.64641],[139.70531,35.6463],[139.70634,35.64618],[139.7069,35.64617],[139.70732,35.64617],[139.70773,35.64629],[139.70808,35.64646]]]},"properties":{"事業者種別":"民営鉄道","行政区域":"13113","路線名":"2号線日比谷線","運営会社":"東京地下鉄","鉄道区分":"普通鉄道"}},{"type":"Feature","geometry":{"type":"MultiLineString","coordinates":[[[139.72226,35.6506],[139.72224395392342,35.65088080634016]]]},"properties":{"事業者種別":"民営鉄道","行政区域":"13113","路線名":"2号線日比谷線","運営会社":"東京地下鉄","鉄道区分":"普通鉄道"}},{"type":"Feature","geometry":{"type":"MultiLineString","coordinates":[[[139.70924,35.6477],[139.70929,35.64774],[139.70958,35.64796],[139.71026,35.64833],[139.71103,35.6488],[139.7113,35.64883],[139.71215,35.64859],[139.71223,35.64857],[139.71384,35.64838],[139.71508,35.64838],[139.71767,35.64877],[139.7188,35.64894],[139.71931,35.64903],[139.72071,35.64927],[139.72143,35.64956],[139.722,35.64997],[139.72216,35.65019],[139.72226,35.6506]]]},"properties":{"事業者種別":"民営鉄道","行政区域":"13113","路線名":"2号線日比谷線","運営会社":"東京地下鉄","鉄道区分":"普通鉄道"}},{"type":"Feature","geometry":{"type":"MultiLineString","coordinates":[[[139.71038127505074,35.66293459365579],[139.71031000000016,35.66288],[139.71027,35.66285],[139.70902,35.66201],[139.70826,35.66154],[139.70681000000013,35.66064],[139.70613651926317,35.66022509190668],[139.7050657618105,35.659771804585034],[139.70338,35.659321]]]},"properties":{"事業者種別":"民営鉄道","行政区域":"13113","路線名":"3号線銀座線","運営会社":"東京地下鉄","鉄道区分":"普通鉄道"}},{"type":"Feature","geometry":{"type":"MultiLineString","coordinates":[[[139.701968,35.658869],[139.702767,35.659131],[139.70338,35.659321]]]},"properties":{"事業者種別":"民営鉄道","行政区域":"13113","路線名":"3号線銀座線","運営会社":"東京地下鉄","鉄道区分":"普通鉄道"}},{"type":"Feature","geometry":{"type":"MultiLineString","coordinates":[[[139.67877,35.66849],[139.67922,35.6687],[139.67954,35.66886],[139.681,35.66954]]]},"properties":{"事業者種別":"民営鉄道","行政区域":"13113","路線名":"9号線千代田線","運営会社":"東京地下鉄","鉄道区分":"普通鉄道"}},{"type":"Feature","geometry":{"type":"MultiLineString","coordinates":[[[139.7105,35.66606],[139.7105195554639,35.66605060570853]]]},"properties":{"事業者種別":"民営鉄道","行政区域":"13113","路線名":"9号線千代田線","運営会社":"東京地下鉄","鉄道区分":"普通鉄道"}},{"type":"Feature","geometry":{"type":"MultiLineString","coordinates":[[[139.68606,35.6697],[139.68647,35.66953],[139.68738,35.66933],[139.68868,35.66926]]]},"properties":{"事業者種別":"民営鉄道","行政区域":"13113","路線名":"9号線千代田線","運営会社":"東京地下鉄","鉄道区分":"普通鉄道"}},{"type":"Feature","geometry":{"type":"MultiLineString","coordinates":[[[139.681,35.66954],[139.68107,35.66957],[139.68202,35.6699],[139.68228,35.66999],[139.68262,35.67008],[139.68298,35.67015],[139.68332,35.67021],[139.68365,35.67022],[139.68394,35.67022],[139.68417,35.67019],[139.68449,35.67012],[139.6851,35.66998],[139.68541,35.6699],[139.68603,35.66971],[139.68606,35.6697]]]},"properties":{"事業者種別":"民営鉄道","行政区域":"13113","路線名":"9号線千代田線","運営会社":"東京地下鉄","鉄道区分":"普通鉄道"}},{"type":"Feature","geometry":{"type":"MultiLineString","coordinates":[[[139.68868,35.66926],[139.68937,35.66917],[139.6909,35.66894]]]},"properties":{"事業者種別":"民営鉄道","行政区域":"13113","路線名":"9号線千代田線","運営会社":"東京地下鉄","鉄道区分":"普通鉄道"}},{"type":"Feature","geometry":{"type":"MultiLineString","coordinates":[[[139.70481,35.66874],[139.70514,35.6686],[139.70833,35.66704],[139.71044,35.66609],[139.7105,35.66606]]]},"properties":{"事業者種別":"民営鉄道","行政区域":"13113","路線名":"9号線千代田線","運営会社":"東京地下鉄","鉄道区分":"普通鉄道"}},{"type":"Feature","geometry":{"type":"MultiLineString","coordinates":[[[139.6909,35.66894],[139.69129,35.66888],[139.69168,35.66885],[139.6921,35.66883],[139.69237,35.66881],[139.69322,35.66881],[139.69477,35.66892],[139.69683,35.66917],[139.70091,35.66971],[139.70165,35.66969],[139.70213,35.66965],[139.7023,35.66963],[139.70307,35.66949]]]},"properties":{"事業者種別":"民営鉄道","行政区域":"13113","路線名":"9号線千代田線","運営会社":"東京地下鉄","鉄道区分":"普通鉄道"}},{"type":"Feature","geometry":{"type":"MultiLineString","coordinates":[[[139.70307,35.66949],[139.70351,35.66932],[139.70481,35.66874]]]},"properties":{"事業者種別":"民営鉄道","行政区域":"13113","路線名":"9号線千代田線","運営会社":"東京地下鉄","鉄道区分":"普通鉄道"}},{"type":"Feature","geometry":{"type":"MultiLineString","coordinates":[[[139.71029776419758,35.66303956406623],[139.71022,35.66298],[139.71018,35.66295],[139.70893,35.66211],[139.70817,35.66164],[139.70672,35.66074],[139.70604,35.66027],[139.70487,35.65993],[139.7021,35.65945]]]},"properties":{"事業者種別":"民営鉄道","行政区域":"13113","路線名":"11号線半蔵門線","運営会社":"東京地下鉄","鉄道区分":"普通鉄道"}},{"type":"Feature","geometry":{"type":"MultiLineString","coordinates":[[[139.7021,35.65945],[139.69997,35.65945]]]},"properties":{"事業者種別":"民営鉄道","行政区域":"13113","路線名":"11号線半蔵門線","運営会社":"東京地下鉄","鉄道区分":"普通鉄道"}},{"type":"Feature","geometry":{"type":"MultiLineString","coordinates":[[[139.69930576770062,35.68870434745557],[139.69791,35.68815]]]},"properties":{"事業者種別":"公営鉄道","行政区域":"13113","路線名":"10号線新宿線","運営会社":"東京都","鉄道区分":"普通鉄道"}},{"type":"Feature","geometry":{"type":"MultiLineString","coordinates":[[[139.71427931757955,35.67999933686989],[139.71392,35.68008]]]},"properties":{"事業者種別":"公営鉄道","行政区域":"13113","路線名":"12号線大江戸線","運営会社":"東京都","鉄道区分":"普通鉄道"}},{"type":"Feature","geometry":{"type":"MultiLineString","coordinates":[[[139.69952,35.68716],[139.69918,35.68809]]]},"properties":{"事業者種別":"公営鉄道","行政区域":"13113","路線名":"12号線大江戸線","運営会社":"東京都","鉄道区分":"普通鉄道"}},{"type":"Feature","geometry":{"type":"MultiLineString","coordinates":[[[139.71392,35.68008],[139.71199,35.68059],[139.71118,35.68079],[139.71054,35.68094],[139.70986,35.6811],[139.70936,35.68118],[139.70838,35.68117],[139.70695,35.68113],[139.70638,35.68104],[139.70613,35.68099],[139.70567,35.68079],[139.7051,35.68052],[139.70455,35.68037],[139.70416,35.68034],[139.70361,35.68042],[139.70316,35.68057],[139.70273,35.68083],[139.70238,35.68118],[139.70218,35.68154],[139.70184,35.68264],[139.70174,35.683]]]},"properties":{"事業者種別":"公営鉄道","行政区域":"13113","路線名":"12号線大江戸線","運営会社":"東京都","鉄道区分":"普通鉄道"}},{"type":"Feature","geometry":{"type":"MultiLineString","coordinates":[[[139.70131,35.68456],[139.70114,35.68511],[139.70094,35.6854],[139.70055,35.68578],[139.69985,35.68656],[139.69952,35.68709],[139.69952,35.68716]]]},"properties":{"事業者種別":"公営鉄道","行政区域":"13113","路線名":"12号線大江戸線","運営会社":"東京都","鉄道区分":"普通鉄道"}},{"type":"Feature","geometry":{"type":"MultiLineString","coordinates":[[[139.69918,35.68809],[139.69914,35.68826],[139.69913,35.68828],[139.69905438082162,35.68861156101286]]]},"properties":{"事業者種別":"公営鉄道","行政区域":"13113","路線名":"12号線大江戸線","運営会社":"東京都","鉄道区分":"普通鉄道"}},{"type":"Feature","geometry":{"type":"MultiLineString","coordinates":[[[139.68351908461673,35.68944888020221],[139.68337,35.6894],[139.68332,35.68938],[139.68271,35.68942],[139.68217,35.68963],[139.68193,35.68997],[139.6818,35.69041],[139.6818,35.690677361724795]]]},"properties":{"事業者種別":"公営鉄道","行政区域":"13113","路線名":"12号線大江戸線","運営会社":"東京都","鉄道区分":"普通鉄道"}},{"type":"Feature","geometry":{"type":"MultiLineString","coordinates":[[[139.70174,35.683],[139.70131,35.68456]]]},"properties":{"事業者種別":"公営鉄道","行政区域":"13113","路線名":"12号線大江戸線","運営会社":"東京都","鉄道区分":"普通鉄道"}},{"type":"Feature","geometry":{"type":"MultiLineString","coordinates":[[[139.70040110686756,35.68867770699691],[139.70062,35.68792],[139.70088,35.68719],[139.70127,35.68625],[139.70176,35.6851],[139.70203,35.6845]]]},"properties":{"事業者種別":"JR在来線","行政区域":"13113","路線名":"山手線","運営会社":"東日本旅客鉄道","鉄道区分":"普通鉄道JR"}},{"type":"Feature","geometry":{"type":"MultiLineString","coordinates":[[[139.70176,35.68735],[139.70222,35.68555]]]},"properties":{"事業者種別":"JR在来線","行政区域":"13113","路線名":"山手線","運営会社":"東日本旅客鉄道","鉄道区分":"普通鉄道JR"}},{"type":"Feature","geometry":{"type":"MultiLineString","coordinates":[[[139.70129,35.65907],[139.70124,35.6593],[139.70122,35.65937],[139.70118,35.65956],[139.70117,35.65965],[139.70118,35.65978],[139.70123,35.66023],[139.70143,35.66181],[139.70147,35.66213],[139.7016,35.66319],[139.70164,35.66349],[139.70201,35.6665],[139.70205,35.66678],[139.70232,35.66891],[139.70235,35.66914],[139.70237,35.66934],[139.70239,35.66954],[139.70239,35.66961],[139.7024,35.66976],[139.70243,35.6699],[139.70251,35.67042]]]},"properties":{"事業者種別":"JR在来線","行政区域":"13113","路線名":"山手線","運営会社":"東日本旅客鉄道","鉄道区分":"普通鉄道JR"}},{"type":"Feature","geometry":{"type":"MultiLineString","coordinates":[[[139.70125,35.6879],[139.70148,35.68712],[139.70171,35.68665],[139.70222,35.68555]]]},"properties":{"事業者種別":"JR在来線","行政区域":"13113","路線名":"山手線","運営会社":"東日本旅客鉄道","鉄道区分":"普通鉄道JR"}},{"type":"Feature","geometry":{"type":"MultiLineString","coordinates":[[[139.70295,35.6722],[139.70345,35.67338],[139.70399,35.67489],[139.70412,35.67552],[139.70412,35.67583],[139.70413,35.67667],[139.70398,35.67771],[139.70384,35.67842]]]},"properties":{"事業者種別":"JR在来線","行政区域":"13113","路線名":"山手線","運営会社":"東日本旅客鉄道","鉄道区分":"普通鉄道JR"}},{"type":"Feature","geometry":{"type":"MultiLineString","coordinates":[[[139.70125,35.6879],[139.70091,35.68894],[139.70090411339342,35.68896354642628]]]},"properties":{"事業者種別":"JR在来線","行政区域":"13113","路線名":"山手線","運営会社":"東日本旅客鉄道","鉄道区分":"普通鉄道JR"}},{"type":"Feature","geometry":{"type":"MultiLineString","coordinates":[[[139.70203,35.6845],[139.70239,35.68309]]]},"properties":{"事業者種別":"JR在来線","行政区域":"13113","路線名":"山手線","運営会社":"東日本旅客鉄道","鉄道区分":"普通鉄道JR"}},{"type":"Feature","geometry":{"type":"MultiLineString","coordinates":[[[139.70239,35.68309],[139.70255,35.68262],[139.70278,35.68201],[139.70313,35.68105],[139.70321,35.68074],[139.70331,35.68039],[139.70384,35.67842]]]},"properties":{"事業者種別":"JR在来線","行政区域":"13113","路線名":"山手線","運営会社":"東日本旅客鉄道","鉄道区分":"普通鉄道JR"}},{"type":"Feature","geometry":{"type":"MultiLineString","coordinates":[[[139.70251,35.67042],[139.70264,35.6711],[139.70275,35.67156],[139.70295,35.6722]]]},"properties":{"事業者種別":"JR在来線","行政区域":"13113","路線名":"山手線","運営会社":"東日本旅客鉄道","鉄道区分":"普通鉄道JR"}},{"type":"Feature","geometry":{"type":"MultiLineString","coordinates":[[[139.70126511523696,35.689037096670646],[139.70127,35.68902],[139.70176,35.68735]]]},"properties":{"事業者種別":"JR在来線","行政区域":"13113","路線名":"山手線","運営会社":"東日本旅客鉄道","鉄道区分":"普通鉄道JR"}},{"type":"Feature","geometry":{"type":"MultiLineString","coordinates":[[[139.70222,35.68555],[139.70272,35.68355],[139.70302,35.68239],[139.70325,35.68148],[139.70348,35.68058],[139.70353,35.68039],[139.70377,35.67936],[139.70384,35.67842]]]},"properties":{"事業者種別":"JR在来線","行政区域":"13113","路線名":"山手線","運営会社":"東日本旅客鉄道","鉄道区分":"普通鉄道JR"}},{"type":"Feature","geometry":{"type":"MultiLineString","coordinates":[[[139.71054,35.64593],[139.70971,35.64743]]]},"properties":{"事業者種別":"JR在来線","行政区域":"13113","路線名":"山手線","運営会社":"東日本旅客鉄道","鉄道区分":"普通鉄道JR"}},{"type":"Feature","geometry":{"type":"MultiLineString","coordinates":[[[139.70971,35.64743],[139.70956,35.6477],[139.70937,35.64804],[139.7087,35.64923],[139.70856,35.64947],[139.70791,35.65065],[139.70776,35.65092],[139.70773,35.65097],[139.70742,35.65134],[139.70691,35.65193],[139.70658,35.65224],[139.70643,35.65241],[139.70597,35.65298],[139.70555,35.65346],[139.70548,35.65355],[139.70543,35.6536],[139.70538,35.65366],[139.70427,35.6549],[139.70334,35.65595],[139.70221,35.65723]]]},"properties":{"事業者種別":"JR在来線","行政区域":"13113","路線名":"山手線","運営会社":"東日本旅客鉄道","鉄道区分":"普通鉄道JR"}},{"type":"Feature","geometry":{"type":"MultiLineString","coordinates":[[[139.70221,35.65723],[139.70201,35.65746],[139.70174,35.65785],[139.70137,35.6588],[139.70129,35.65907]]]},"properties":{"事業者種別":"JR在来線","行政区域":"13113","路線名":"山手線","運営会社":"東日本旅客鉄道","鉄道区分":"普通鉄道JR"}},{"type":"Feature","geometry":{"type":"MultiLineString","coordinates":[[[139.71054,35.64593],[139.71079,35.64546],[139.7111,35.6449],[139.71145,35.64426],[139.7118,35.64361],[139.71202,35.64323],[139.7122,35.64297],[139.7125482977101,35.64234986017474]]]},"properties":{"事業者種別":"JR在来線","行政区域":"13113","路線名":"山手線","運営会社":"東日本旅客鉄道","鉄道区分":"普通鉄道JR"}},{"type":"Feature","geometry":{"type":"MultiLineString","coordinates":[[[139.71450936466945,35.68080317232317],[139.71408,35.68086],[139.71355,35.68092],[139.71279,35.68101]]]},"properties":{"事業者種別":"JR在来線","行政区域":"13113","路線名":"中央線","運営会社":"東日本旅客鉄道","鉄道区分":"普通鉄道JR"}},{"type":"Feature","geometry":{"type":"MultiLineString","coordinates":[[[139.70203,35.6845],[139.70239,35.68309]]]},"properties":{"事業者種別":"JR在来線","行政区域":"13113","路線名":"中央線","運営会社":"東日本旅客鉄道","鉄道区分":"普通鉄道JR"}},{"type":"Feature","geometry":{"type":"MultiLineString","coordinates":[[[139.71279,35.68101],[139.7113,35.68123],[139.71027,35.68138]]]},"properties":{"事業者種別":"JR在来線","行政区域":"13113","路線名":"中央線","運営会社":"東日本旅客鉄道","鉄道区分":"普通鉄道JR"}},{"type":"Feature","geometry":{"type":"MultiLineString","coordinates":[[[139.70275,35.68262],[139.70263,35.68273],[139.70254,35.68286],[139.70239,35.68309]]]},"properties":{"事業者種別":"JR在来線","行政区域":"13113","路線名":"中央線","運営会社":"東日本旅客鉄道","鉄道区分":"普通鉄道JR"}},{"type":"Feature","geometry":{"type":"MultiLineString","coordinates":[[[139.71027,35.68138],[139.70951,35.68153],[139.70845,35.6815],[139.70801,35.68148],[139.70709,35.68144],[139.70664,35.68142],[139.70584,35.68136],[139.70538,35.68138],[139.70521,35.68141],[139.70486,35.68147],[139.70429,35.68164],[139.70394,35.68179],[139.70342,35.68207],[139.70318,35.68225],[139.70294,35.68245],[139.70275,35.68262]]]},"properties":{"事業者種別":"JR在来線","行政区域":"13113","路線名":"中央線","運営会社":"東日本旅客鉄道","鉄道区分":"普通鉄道JR"}},{"type":"Feature","geometry":{"type":"MultiLineString","coordinates":[[[139.70275,35.68262],[139.70257,35.68331],[139.70243,35.68387],[139.7022,35.68474],[139.70209,35.68514],[139.70184,35.68575],[139.70146,35.6865],[139.7011,35.68735],[139.70087,35.688],[139.70068,35.68871],[139.7006522828621,35.688827797836076]]]},"properties":{"事業者種別":"JR在来線","行政区域":"13113","路線名":"中央線","運営会社":"東日本旅客鉄道","鉄道区分":"普通鉄道JR"}},{"type":"Feature","geometry":{"type":"MultiLineString","coordinates":[[[139.702303,35.659955],[139.702524,35.659078],[139.702926,35.658263]]]},"properties":{"事業者種別":"民営鉄道","行政区域":"13113","路線名":"13号線副都心線","運営会社":"東京地下鉄","鉄道区分":"普通鉄道"}},{"type":"Feature","geometry":{"type":"MultiLineString","coordinates":[[[139.70588,35.66907],[139.70545,35.6685],[139.70507,35.66796],[139.7046,35.66734]]]},"properties":{"事業者種別":"民営鉄道","行政区域":"13113","路線名":"13号線副都心線","運営会社":"東京地下鉄","鉄道区分":"普通鉄道"}},{"type":"Feature","geometry":{"type":"MultiLineString","coordinates":[[[139.7046,35.66734],[139.7028,35.66495],[139.70231,35.66421],[139.702051,35.663576],[139.702274,35.660867],[139.702303,35.659955]]]},"properties":{"事業者種別":"民営鉄道","行政区域":"13113","路線名":"13号線副都心線","運営会社":"東京地下鉄","鉄道区分":"普通鉄道"}},{"type":"Feature","geometry":{"type":"MultiLineString","coordinates":[[[139.70292548892706,35.68788941652357],[139.70308,35.68731]]]},"properties":{"事業者種別":"民営鉄道","行政区域":"13113","路線名":"13号線副都心線","運営会社":"東京地下鉄","鉄道区分":"普通鉄道"}},{"type":"Feature","geometry":{"type":"MultiLineString","coordinates":[[[139.70308,35.68731],[139.70381,35.68463],[139.70411,35.68416],[139.7046,35.6836],[139.70464,35.68313],[139.70458,35.68001],[139.70473,35.67947]]]},"properties":{"事業者種別":"民営鉄道","行政区域":"13113","路線名":"13号線副都心線","運営会社":"東京地下鉄","鉄道区分":"普通鉄道"}},{"type":"Feature","geometry":{"type":"MultiLineString","coordinates":[[[139.70473,35.67947],[139.70606,35.67774],[139.70614,35.6775]]]},"properties":{"事業者種別":"民営鉄道","行政区域":"13113","路線名":"13号線副都心線","運営会社":"東京地下鉄","鉄道区分":"普通鉄道"}},{"type":"Feature","geometry":{"type":"MultiLineString","coordinates":[[[139.70614,35.6775],[139.70624,35.67723],[139.70675,35.67516],[139.70774,35.67355],[139.70812,35.67272],[139.70821,35.67231],[139.70814,35.672],[139.70669,35.67014],[139.70588,35.66907]]]},"properties":{"事業者種別":"民営鉄道","行政区域":"13113","路線名":"13号線副都心線","運営会社":"東京地下鉄","鉄道区分":"普通鉄道"}}],"name":"13113_shibuya-ku_pref_2023_railway","type":"FeatureCollection"}