{"features":[{"type":"Feature","geometry":{"type":"Point","coordinates":[139.701829,35.651156]},"properties":{"レベル":1,"住所":"東京都渋谷区猿楽町12-35","収容人数":null,"名称":"猿楽小学校","対象とする災害の分類":"指定なし","施設の種類":"避難所","施設規模":null,"行政区域":13113,"高さ":"15.9"}},{"type":"Feature","geometry":{"type":"Point","coordinates":[139.714356,35.644129]},"properties":{"レベル":1,"住所":"東京都渋谷区恵比寿4-21-10","収容人数":null,"名称":"加計塚小学校","対象とする災害の分類":"指定なし","施設の種類":"避難所","施設規模":null,"行政区域":13113,"高さ":"17.7"}},{"type":"Feature","geometry":{"type":"Point","coordinates":[139.713781417,35.6425440099]},"properties":{"レベル":3,"住所":"東京都渋谷区恵比寿4丁目20番、目黒区三田1丁目4番、13番","収容人数":42900,"名称":"恵比寿ガーデンプレイス","対象とする災害の分類":"指定なし","施設の種類":"避難場所","施設規模":56300,"行政区域":13113,"高さ":"27"}},{"type":"Feature","geometry":{"type":"Point","coordinates":[139.705633,35.67357]},"properties":{"レベル":1,"住所":"東京都渋谷区神宮前1-24-6","収容人数":null,"名称":"原宿外苑中学校","対象とする災害の分類":"指定なし","施設の種類":"避難所","施設規模":null,"行政区域":13113,"高さ":"23"}},{"type":"Feature","geometry":{"type":"Point","coordinates":[139.712411,35.654239]},"properties":{"レベル":1,"住所":"東京都渋谷区東4-13-25","収容人数":null,"名称":"広尾中学校","対象とする災害の分類":"指定なし","施設の種類":"避難所","施設規模":null,"行政区域":13113,"高さ":"19.8"}},{"type":"Feature","geometry":{"type":"Point","coordinates":[139.669136,35.676208]},"properties":{"レベル":1,"住所":"東京都渋谷区笹塚2-8-1","収容人数":null,"名称":"笹塚小学校","対象とする災害の分類":"指定なし","施設の種類":"避難所","施設規模":null,"行政区域":13113,"高さ":"20.8"}},{"type":"Feature","geometry":{"type":"Point","coordinates":[139.6948,35.681319]},"properties":{"レベル":1,"住所":"東京都渋谷区代-木3-47-1","収容人数":null,"名称":"山谷小学校","対象とする災害の分類":"指定なし","施設の種類":"避難所","施設規模":null,"行政区域":13113,"高さ":"21.3"}},{"type":"Feature","geometry":{"type":"Point","coordinates":[139.680633,35.675925]},"properties":{"レベル":1,"住所":"東京都渋谷区西原1-40-18","収容人数":null,"名称":"渋谷区スポーツセンター","対象とする災害の分類":"指定なし","施設の種類":"避難所","施設規模":null,"行政区域":13113,"高さ":"23.3"}},{"type":"Feature","geometry":{"type":"Point","coordinates":[139.691012,35.661137]},"properties":{"レベル":1,"住所":"東京都渋谷区松濤1-20-4","収容人数":null,"名称":"松濤中学校","対象とする災害の分類":"指定なし","施設の種類":"避難所","施設規模":null,"行政区域":13113,"高さ":"20.7"}},{"type":"Feature","geometry":{"type":"Point","coordinates":[139.679052,35.66632]},"properties":{"レベル":1,"住所":"東京都渋谷区上原3-13-20","収容人数":null,"名称":"上原小学校","対象とする災害の分類":"指定なし","施設の種類":"避難所","施設規模":null,"行政区域":13113,"高さ":"18.4"}},{"type":"Feature","geometry":{"type":"Point","coordinates":[139.710328,35.655683]},"properties":{"レベル":1,"住所":"東京都渋谷区東1-7-10","収容人数":null,"名称":"常磐松小学校","対象とする災害の分類":"指定なし","施設の種類":"避難所","施設規模":null,"行政区域":13113,"高さ":"20.2"}},{"type":"Feature","geometry":{"type":"Point","coordinates":[139.697495,35.663265]},"properties":{"レベル":1,"住所":"東京都渋谷区宇田川町5-1","収容人数":null,"名称":"神南小学校","対象とする災害の分類":"指定なし","施設の種類":"避難所","施設規模":null,"行政区域":13113,"高さ":"14.4"}},{"type":"Feature","geometry":{"type":"Point","coordinates":[139.678802,35.674097]},"properties":{"レベル":1,"住所":"東京都渋谷区西原2-22-1","収容人数":null,"名称":"西原小学校","対象とする災害の分類":"指定なし","施設の種類":"避難所","施設規模":null,"行政区域":13113,"高さ":"16"}},{"type":"Feature","geometry":{"type":"Point","coordinates":[139.707799,35.675375]},"properties":{"レベル":1,"住所":"東京都渋谷区千駄ヶ谷2-4-1","収容人数":null,"名称":"千駄谷小学校","対象とする災害の分類":"指定なし","施設の種類":"避難所","施設規模":null,"行政区域":13113,"高さ":"18.8"}},{"type":"Feature","geometry":{"type":"Point","coordinates":[139.697939,35.684513]},"properties":{"レベル":1,"住所":"東京都渋谷区代-木2-35-1","収容人数":null,"名称":"代々木小学校","対象とする災害の分類":"指定なし","施設の種類":"避難所","施設規模":null,"行政区域":13113,"高さ":"12.6"}},{"type":"Feature","geometry":{"type":"Point","coordinates":[139.673358,35.680707]},"properties":{"レベル":1,"住所":"東京都渋谷区幡ヶ谷3-49-1","収容人数":null,"名称":"中幡小学校","対象とする災害の分類":"指定なし","施設の種類":"避難所","施設規模":null,"行政区域":13113,"高さ":"18.9"}},{"type":"Feature","geometry":{"type":"Point","coordinates":[139.705995,35.647184]},"properties":{"レベル":1,"住所":"東京都渋谷区恵比寿西1-23-1","収容人数":null,"名称":"長谷戸小学校","対象とする災害の分類":"指定なし","施設の種類":"避難所","施設規模":null,"行政区域":13113,"高さ":"24.5"}},{"type":"Feature","geometry":{"type":"Point","coordinates":[139.684162,35.679097]},"properties":{"レベル":1,"住所":"東京都渋谷区初台1-32-12","収容人数":null,"名称":"幡代小学校","対象とする災害の分類":"指定なし","施設の種類":"避難所","施設規模":null,"行政区域":13113,"高さ":"16.6"}},{"type":"Feature","geometry":{"type":"Point","coordinates":[139.705994,35.682625]},"properties":{"レベル":1,"住所":"東京都渋谷区千駄ヶ谷5-9-1","収容人数":null,"名称":"鳩森小学校","対象とする災害の分類":"指定なし","施設の種類":"避難所","施設規模":null,"行政区域":13113,"高さ":"12"}},{"type":"Feature","geometry":{"type":"Point","coordinates":[139.681968,35.6860119999]},"properties":{"レベル":1,"住所":"東京都渋谷区本町4-3-1","収容人数":null,"名称":"本町中学校","対象とする災害の分類":"指定なし","施設の種類":"避難所","施設規模":null,"行政区域":13113,"高さ":"20.2"}},{"type":"Feature","geometry":{"type":"Point","coordinates":[139.716577,35.649267]},"properties":{"レベル":1,"住所":"東京都渋谷区広尾1-9-17","収容人数":null,"名称":"臨川小学校","対象とする災害の分類":"指定なし","施設の種類":"避難所","施設規模":null,"行政区域":13113,"高さ":"8.9"}},{"type":"Feature","geometry":{"type":"Point","coordinates":[139.711188,35.670071]},"properties":{"レベル":1,"住所":"東京都渋谷区神宮前3-12-8","収容人数":null,"名称":"ケアコミュニティ・原宿の丘（旧原宿中学校）","対象とする災害の分類":"指定なし","施設の種類":"避難所","施設規模":null,"行政区域":13113,"高さ":"18.5"}},{"type":"Feature","geometry":{"type":"Point","coordinates":[139.704941,35.6618399991]},"properties":{"レベル":1,"住所":"東京都渋谷区渋谷1-18-21","収容人数":null,"名称":"ケアコミュニティ・美竹の丘（旧渋谷小学校）","対象とする災害の分類":"指定なし","施設の種類":"避難所","施設規模":null,"行政区域":13113,"高さ":"30.9"}},{"type":"Feature","geometry":{"type":"Point","coordinates":[139.712022,35.651711]},"properties":{"レベル":1,"住所":"東京都渋谷区東3-3-3","収容人数":null,"名称":"広尾小学校","対象とする災害の分類":"指定なし","施設の種類":"避難所","施設規模":null,"行政区域":13113,"高さ":"23.9"}},{"type":"Feature","geometry":{"type":"Point","coordinates":[139.66858,35.677791]},"properties":{"レベル":1,"住所":"東京都渋谷区笹塚3-10-1","収容人数":null,"名称":"笹塚中学校","対象とする災害の分類":"指定なし","施設の種類":"避難所","施設規模":null,"行政区域":13113,"高さ":"19.2"}},{"type":"Feature","geometry":{"type":"Point","coordinates":[139.678025,35.667042]},"properties":{"レベル":1,"住所":"東京都渋谷区上原3-41-2","収容人数":null,"名称":"上原中学校","対象とする災害の分類":"指定なし","施設の種類":"避難所","施設規模":null,"行政区域":13113,"高さ":"18.1"}},{"type":"Feature","geometry":{"type":"Point","coordinates":[139.707938,35.668015]},"properties":{"レベル":1,"住所":"東京都渋谷区神宮前4-20-12","収容人数":null,"名称":"神宮前小学校","対象とする災害の分類":"指定なし","施設の種類":"避難所","施設規模":null,"行政区域":13113,"高さ":"15.8"}},{"type":"Feature","geometry":{"type":"Point","coordinates":[139.719894,35.6520407679]},"properties":{"レベル":3,"住所":"東京都渋谷区","収容人数":21000,"名称":"聖心女子大学一帯","対象とする災害の分類":"指定なし","施設の種類":"避難場所","施設規模":68100,"行政区域":13113,"高さ":"25.7"}},{"type":"Feature","geometry":{"type":"Point","coordinates":[139.710544986,35.6601915437]},"properties":{"レベル":3,"住所":"東京都渋谷区","収容人数":39000,"名称":"青山学院・実践女子学園一帯","対象とする災害の分類":"指定なし","施設の種類":"避難場所","施設規模":77800,"行政区域":13113,"高さ":"26.5"}},{"type":"Feature","geometry":{"type":"Point","coordinates":[139.683579,35.674569]},"properties":{"レベル":1,"住所":"東京都渋谷区西原1-46-1","収容人数":null,"名称":"代々木中学校","対象とする災害の分類":"指定なし","施設の種類":"避難所","施設規模":null,"行政区域":13113,"高さ":"21.5"}},{"type":"Feature","geometry":{"type":"Point","coordinates":[139.703121,35.653152]},"properties":{"レベル":1,"住所":"東京都渋谷区鶯谷町9-1","収容人数":null,"名称":"鉢山中学校","対象とする災害の分類":"指定なし","施設の種類":"避難所","施設規模":null,"行政区域":13113,"高さ":"21"}},{"type":"Feature","geometry":{"type":"Point","coordinates":[139.686829,35.669181]},"properties":{"レベル":1,"住所":"東京都渋谷区上原1-46-4","収容人数":null,"名称":"富谷小学校","対象とする災害の分類":"指定なし","施設の種類":"避難所","施設規模":null,"行政区域":13113,"高さ":"18.2"}},{"type":"Feature","geometry":{"type":"Point","coordinates":[139.679635,35.685374]},"properties":{"レベル":1,"住所":"東京都渋谷区本町4-39-1","収容人数":null,"名称":"本町小学校","対象とする災害の分類":"指定なし","施設の種類":"避難所","施設規模":null,"行政区域":13113,"高さ":"14.2"}},{"type":"Feature","geometry":{"type":"Point","coordinates":[139.682162,35.687651]},"properties":{"レベル":1,"住所":"東京都渋谷区本町3-46-1","収容人数":null,"名称":"本町東小学校","対象とする災害の分類":"指定なし","施設の種類":"避難所","施設規模":null,"行政区域":13113,"高さ":"202.8"}},{"type":"Feature","geometry":{"type":"Point","coordinates":[139.697371392,35.6729910718]},"properties":{"レベル":3,"住所":"東京都渋谷区","収容人数":213400,"名称":"明治神宮・代々木公園一帯","対象とする災害の分類":"指定なし","施設の種類":"避難場所","施設規模":827200,"行政区域":13113,"高さ":null}}],"name":"13113_shibuya-ku_pref_2023_shelter","type":"FeatureCollection"}