{"features":[{"type":"Feature","geometry":{"type":"Point","coordinates":[139.679883,35.66902]},"properties":{"事業者種別":"民営鉄道","路線名":"小田原線","運営会社":"小田急電鉄","鉄道区分":"普通鉄道","駅名":"代々木上原駅","高さ":17.6}},{"type":"Feature","geometry":{"type":"Point","coordinates":[139.69977716,35.65853816]},"properties":{"事業者種別":"民営鉄道","路線名":"井の頭線","運営会社":"京王電鉄","鉄道区分":"普通鉄道","駅名":"渋谷駅","高さ":98}},{"type":"Feature","geometry":{"type":"Point","coordinates":[139.710125,35.64668]},"properties":{"事業者種別":"JR在来線（旧国鉄含む）","路線名":"山手線","運営会社":"東日本旅客鉄道（旧国鉄）","鉄道区分":"普通鉄道JR","駅名":"恵比寿駅","高さ":69.8}},{"type":"Feature","geometry":{"type":"Point","coordinates":[139.701645,35.658093]},"properties":{"事業者種別":"JR在来線（旧国鉄含む）","路線名":"山手線","運営会社":"東日本旅客鉄道（旧国鉄）","鉄道区分":"普通鉄道JR","駅名":"渋谷駅","高さ":19.1}},{"type":"Feature","geometry":{"type":"Point","coordinates":[139.689791,35.669107]},"properties":{"事業者種別":"民営鉄道","路線名":"9号線千代田線","運営会社":"東京地下鉄","鉄道区分":"普通鉄道","駅名":"代々木公園駅","高さ":9.9}},{"type":"Feature","geometry":{"type":"Point","coordinates":[139.679883,35.66902]},"properties":{"事業者種別":"民営鉄道","路線名":"9号線千代田線","運営会社":"東京地下鉄","鉄道区分":"普通鉄道","駅名":"代々木上原駅","高さ":17.6}},{"type":"Feature","geometry":{"type":"Point","coordinates":[139.70252445,35.6590783]},"properties":{"事業者種別":"民営鉄道","路線名":"13号線副都心線","運営会社":"東京地下鉄","鉄道区分":"普通鉄道","駅名":"渋谷駅","高さ":19}},{"type":"Feature","geometry":{"type":"Point","coordinates":[139.70252445,35.6590783]},"properties":{"事業者種別":"民営鉄道","路線名":"東横線","運営会社":"東急電鉄","鉄道区分":"普通鉄道","駅名":"渋谷駅","高さ":19}},{"type":"Feature","geometry":{"type":"Point","coordinates":[139.70264225950444,35.659090096358156]},"properties":{"事業者種別":"民営鉄道","路線名":"3号線銀座線","運営会社":"東京地下鉄","鉄道区分":"普通鉄道","駅名":"渋谷駅","高さ":19}},{"type":"Feature","geometry":{"type":"Point","coordinates":[139.70221,35.683795]},"properties":{"事業者種別":"JR在来線（旧国鉄含む）","路線名":"中央線","運営会社":"東日本旅客鉄道（旧国鉄）","鉄道区分":"普通鉄道JR","駅名":"代々木駅","高さ":11.2}},{"type":"Feature","geometry":{"type":"Point","coordinates":[139.71153,35.681196]},"properties":{"事業者種別":"JR在来線（旧国鉄含む）","路線名":"中央線","運営会社":"東日本旅客鉄道（旧国鉄）","鉄道区分":"普通鉄道JR","駅名":"千駄ヶ谷駅","高さ":11.5}},{"type":"Feature","geometry":{"type":"Point","coordinates":[139.689068,35.669694]},"properties":{"事業者種別":"民営鉄道","路線名":"小田原線","運営会社":"小田急電鉄","鉄道区分":"普通鉄道","駅名":"代々木八幡駅","高さ":10.9}},{"type":"Feature","geometry":{"type":"Point","coordinates":[139.69865,35.683555]},"properties":{"事業者種別":"民営鉄道","路線名":"小田原線","運営会社":"小田急電鉄","鉄道区分":"普通鉄道","駅名":"南新宿駅","高さ":11.9}},{"type":"Feature","geometry":{"type":"Point","coordinates":[139.693585,35.678605]},"properties":{"事業者種別":"民営鉄道","路線名":"小田原線","運営会社":"小田急電鉄","鉄道区分":"普通鉄道","駅名":"参宮橋駅","高さ":10.9}},{"type":"Feature","geometry":{"type":"Point","coordinates":[139.667175,35.67366]},"properties":{"事業者種別":"民営鉄道","路線名":"京王線","運営会社":"京王電鉄","鉄道区分":"普通鉄道","駅名":"笹塚駅","高さ":12.6}},{"type":"Feature","geometry":{"type":"Point","coordinates":[139.67772,35.67676]},"properties":{"事業者種別":"民営鉄道","路線名":"京王線","運営会社":"京王電鉄","鉄道区分":"普通鉄道","駅名":"幡ヶ谷駅","高さ":0}},{"type":"Feature","geometry":{"type":"Point","coordinates":[139.68827,35.68142]},"properties":{"事業者種別":"民営鉄道","路線名":"京王線","運営会社":"京王電鉄","鉄道区分":"普通鉄道","駅名":"初台駅","高さ":0}},{"type":"Feature","geometry":{"type":"Point","coordinates":[139.698615,35.68843]},"properties":{"事業者種別":"民営鉄道","路線名":"京王線","運営会社":"京王電鉄","鉄道区分":"普通鉄道","駅名":"新宿駅","高さ":0}},{"type":"Feature","geometry":{"type":"Point","coordinates":[139.693131,35.657174]},"properties":{"事業者種別":"民営鉄道","路線名":"井の頭線","運営会社":"京王電鉄","鉄道区分":"普通鉄道","駅名":"神泉駅","高さ":21.2}},{"type":"Feature","geometry":{"type":"Point","coordinates":[139.70221,35.683795]},"properties":{"事業者種別":"JR在来線（旧国鉄含む）","路線名":"山手線","運営会社":"東日本旅客鉄道（旧国鉄）","鉄道区分":"普通鉄道JR","駅名":"代々木駅","高さ":11.2}},{"type":"Feature","geometry":{"type":"Point","coordinates":[139.702692,35.671319]},"properties":{"事業者種別":"JR在来線（旧国鉄含む）","路線名":"山手線","運営会社":"東日本旅客鉄道（旧国鉄）","鉄道区分":"普通鉄道JR","駅名":"原宿駅","高さ":8.1}},{"type":"Feature","geometry":{"type":"Point","coordinates":[139.698615,35.68843]},"properties":{"事業者種別":"公営鉄道","路線名":"10号線新宿線","運営会社":"東京都","鉄道区分":"普通鉄道","駅名":"新宿駅","高さ":0}},{"type":"Feature","geometry":{"type":"Point","coordinates":[139.69935,35.687625]},"properties":{"事業者種別":"公営鉄道","路線名":"12号線大江戸線","運営会社":"東京都","鉄道区分":"普通鉄道","駅名":"新宿駅","高さ":0}},{"type":"Feature","geometry":{"type":"Point","coordinates":[139.701525,35.68378]},"properties":{"事業者種別":"公営鉄道","路線名":"12号線大江戸線","運営会社":"東京都","鉄道区分":"普通鉄道","駅名":"代々木駅","高さ":0}},{"type":"Feature","geometry":{"type":"Point","coordinates":[139.708726,35.647015]},"properties":{"事業者種別":"民営鉄道","路線名":"2号線日比谷線","運営会社":"東京地下鉄","鉄道区分":"普通鉄道","駅名":"恵比寿駅","高さ":0}},{"type":"Feature","geometry":{"type":"Point","coordinates":[139.703945,35.669126]},"properties":{"事業者種別":"民営鉄道","路線名":"9号線千代田線","運営会社":"東京地下鉄","鉄道区分":"普通鉄道","駅名":"明治神宮前駅","高さ":0}},{"type":"Feature","geometry":{"type":"Point","coordinates":[139.701035,35.65945]},"properties":{"事業者種別":"民営鉄道","路線名":"11号線半蔵門線","運営会社":"東京地下鉄","鉄道区分":"普通鉄道","駅名":"渋谷駅","高さ":0}},{"type":"Feature","geometry":{"type":"Point","coordinates":[139.705242,35.668204]},"properties":{"事業者種別":"民営鉄道","路線名":"13号線副都心線","運営会社":"東京地下鉄","鉄道区分":"普通鉄道","駅名":"明治神宮前駅","高さ":0}},{"type":"Feature","geometry":{"type":"Point","coordinates":[139.705472,35.678505]},"properties":{"事業者種別":"民営鉄道","路線名":"13号線副都心線","運営会社":"東京地下鉄","鉄道区分":"普通鉄道","駅名":"北参道駅","高さ":0}},{"type":"Feature","geometry":{"type":"Point","coordinates":[139.70349,35.64825]},"properties":{"事業者種別":"民営鉄道","路線名":"東横線","運営会社":"東急電鉄","鉄道区分":"普通鉄道","駅名":"代官山駅","高さ":15.3}},{"type":"Feature","geometry":{"type":"Point","coordinates":[139.701035,35.65945]},"properties":{"事業者種別":"民営鉄道","路線名":"田園都市線","運営会社":"東急電鉄","鉄道区分":"普通鉄道","駅名":"渋谷駅","高さ":0}}],"name":"13113_shibuya-ku_pref_2023_station","type":"FeatureCollection"}