{"features":[{"type":"Feature","geometry":{"type":"Point","coordinates":[139.69180325,35.67194234]},"properties":{"供用済面積":540529,"供用開始年":1967,"公園名":"代々木公園","公園種別":"総合公園","所在地市区町村名":"渋谷区","所在地都道府県名":"東京都","管理市区町村":null,"管理都道府県・整備局":"東京都","都市計画決定":2}},{"type":"Feature","geometry":{"type":"Point","coordinates":[139.71175,35.64818]},"properties":{"供用済面積":2666,"供用開始年":1958,"公園名":"恵比寿東公園","公園種別":"街区公園","所在地市区町村名":"渋谷区","所在地都道府県名":"東京都","管理市区町村":"渋谷区","管理都道府県・整備局":"東京都","都市計画決定":0}},{"type":"Feature","geometry":{"type":"Point","coordinates":[139.71082,35.64656]},"properties":{"供用済面積":588,"供用開始年":1996,"公園名":"恵比寿駅東口公園","公園種別":"街区公園","所在地市区町村名":"渋谷区","所在地都道府県名":"東京都","管理市区町村":"渋谷区","管理都道府県・整備局":"東京都","都市計画決定":0}},{"type":"Feature","geometry":{"type":"Point","coordinates":[139.71321,35.64402]},"properties":{"供用済面積":1004,"供用開始年":1995,"公園名":"景丘公園","公園種別":"街区公園","所在地市区町村名":"渋谷区","所在地都道府県名":"東京都","管理市区町村":"渋谷区","管理都道府県・整備局":"東京都","都市計画決定":0}},{"type":"Feature","geometry":{"type":"Point","coordinates":[139.71361,35.64277]},"properties":{"供用済面積":1422,"供用開始年":1994,"公園名":"アメリカ橋公園","公園種別":"街区公園","所在地市区町村名":"渋谷区","所在地都道府県名":"東京都","管理市区町村":"渋谷区","管理都道府県・整備局":"東京都","都市計画決定":0}},{"type":"Feature","geometry":{"type":"Point","coordinates":[139.71984439,35.65625264]},"properties":{"供用済面積":1845,"供用開始年":1987,"公園名":"広尾北公園","公園種別":"街区公園","所在地市区町村名":"渋谷区","所在地都道府県名":"東京都","管理市区町村":"渋谷区","管理都道府県・整備局":"東京都","都市計画決定":0}},{"type":"Feature","geometry":{"type":"Point","coordinates":[139.72124,35.65313734]},"properties":{"供用済面積":1149,"供用開始年":1987,"公園名":"広尾東公園","公園種別":"街区公園","所在地市区町村名":"渋谷区","所在地都道府県名":"東京都","管理市区町村":"渋谷区","管理都道府県・整備局":"東京都","都市計画決定":0}},{"type":"Feature","geometry":{"type":"Point","coordinates":[139.72194,35.64853]},"properties":{"供用済面積":2869,"供用開始年":1973,"公園名":"広尾公園","公園種別":"街区公園","所在地市区町村名":"渋谷区","所在地都道府県名":"東京都","管理市区町村":"渋谷区","管理都道府県・整備局":"東京都","都市計画決定":0}},{"type":"Feature","geometry":{"type":"Point","coordinates":[139.70888,35.65604]},"properties":{"供用済面積":263,"供用開始年":1997,"公園名":"常磐松公園","公園種別":"街区公園","所在地市区町村名":"渋谷区","所在地都道府県名":"東京都","管理市区町村":"渋谷区","管理都道府県・整備局":"東京都","都市計画決定":0}},{"type":"Feature","geometry":{"type":"Point","coordinates":[139.71042,35.65498]},"properties":{"供用済面積":1908,"供用開始年":2002,"公園名":"氷川の杜公園","公園種別":"街区公園","所在地市区町村名":"渋谷区","所在地都道府県名":"東京都","管理市区町村":"渋谷区","管理都道府県・整備局":"東京都","都市計画決定":0}},{"type":"Feature","geometry":{"type":"Point","coordinates":[139.70988,35.65237]},"properties":{"供用済面積":256,"供用開始年":1993,"公園名":"氷川つるかめ公園","公園種別":"街区公園","所在地市区町村名":"渋谷区","所在地都道府県名":"東京都","管理市区町村":"渋谷区","管理都道府県・整備局":"東京都","都市計画決定":0}},{"type":"Feature","geometry":{"type":"Point","coordinates":[139.71188,35.64251]},"properties":{"供用済面積":2017,"供用開始年":1955,"公園名":"恵比寿南一公園","公園種別":"街区公園","所在地市区町村名":"渋谷区","所在地都道府県名":"東京都","管理市区町村":"渋谷区","管理都道府県・整備局":"東京都","都市計画決定":0}},{"type":"Feature","geometry":{"type":"Point","coordinates":[139.70866,35.64351]},"properties":{"供用済面積":1889,"供用開始年":1953,"公園名":"恵比寿南二公園","公園種別":"街区公園","所在地市区町村名":"渋谷区","所在地都道府県名":"東京都","管理市区町村":"渋谷区","管理都道府県・整備局":"東京都","都市計画決定":0}},{"type":"Feature","geometry":{"type":"Point","coordinates":[139.70686,35.64699]},"properties":{"供用済面積":4142,"供用開始年":1960,"公園名":"恵比寿公園","公園種別":"街区公園","所在地市区町村名":"渋谷区","所在地都道府県名":"東京都","管理市区町村":"渋谷区","管理都道府県・整備局":"東京都","都市計画決定":0}},{"type":"Feature","geometry":{"type":"Point","coordinates":[139.70534,35.65113]},"properties":{"供用済面積":207,"供用開始年":1999,"公園名":"代官山さんかく公園","公園種別":"街区公園","所在地市区町村名":"渋谷区","所在地都道府県名":"東京都","管理市区町村":"渋谷区","管理都道府県・整備局":"東京都","都市計画決定":0}},{"type":"Feature","geometry":{"type":"Point","coordinates":[139.70337,35.64858]},"properties":{"供用済面積":363,"供用開始年":2000,"公園名":"代官山公園","公園種別":"街区公園","所在地市区町村名":"渋谷区","所在地都道府県名":"東京都","管理市区町村":"渋谷区","管理都道府県・整備局":"東京都","都市計画決定":0}},{"type":"Feature","geometry":{"type":"Point","coordinates":[139.70201,35.65096]},"properties":{"供用済面積":1076,"供用開始年":1978,"公園名":"猿楽古代住居跡公園","公園種別":"街区公園","所在地市区町村名":"渋谷区","所在地都道府県名":"東京都","管理市区町村":"渋谷区","管理都道府県・整備局":"東京都","都市計画決定":0}},{"type":"Feature","geometry":{"type":"Point","coordinates":[139.6989,35.65231]},"properties":{"供用済面積":530,"供用開始年":1993,"公園名":"鉢山公園","公園種別":"街区公園","所在地市区町村名":"渋谷区","所在地都道府県名":"東京都","管理市区町村":"渋谷区","管理都道府県・整備局":"東京都","都市計画決定":0}},{"type":"Feature","geometry":{"type":"Point","coordinates":[139.70399,35.66189]},"properties":{"供用済面積":2888,"供用開始年":1943,"公園名":"美竹公園","公園種別":"街区公園","所在地市区町村名":"渋谷区","所在地都道府県名":"東京都","管理市区町村":"渋谷区","管理都道府県・整備局":"東京都","都市計画決定":0}},{"type":"Feature","geometry":{"type":"Point","coordinates":[139.69121,35.65975]},"properties":{"供用済面積":5012,"供用開始年":1950,"公園名":"鍋島松濤公園","公園種別":"街区公園","所在地市区町村名":"渋谷区","所在地都道府県名":"東京都","管理市区町村":"渋谷区","管理都道府県・整備局":"東京都","都市計画決定":0}},{"type":"Feature","geometry":{"type":"Point","coordinates":[139.69943,35.66413]},"properties":{"供用済面積":960,"供用開始年":1963,"公園名":"北谷公園","公園種別":"街区公園","所在地市区町村名":"渋谷区","所在地都道府県名":"東京都","管理市区町村":"渋谷区","管理都道府県・整備局":"東京都","都市計画決定":0}},{"type":"Feature","geometry":{"type":"Point","coordinates":[139.67906,35.66635]},"properties":{"供用済面積":977,"供用開始年":1973,"公園名":"上原公園","公園種別":"街区公園","所在地市区町村名":"渋谷区","所在地都道府県名":"東京都","管理市区町村":"渋谷区","管理都道府県・整備局":"東京都","都市計画決定":0}},{"type":"Feature","geometry":{"type":"Point","coordinates":[139.69078,35.66946]},"properties":{"供用済面積":5243,"供用開始年":1977,"公園名":"代々木深町小公園","公園種別":"総合公園","所在地市区町村名":"渋谷区","所在地都道府県名":"東京都","管理市区町村":"渋谷区","管理都道府県・整備局":"東京都","都市計画決定":0}},{"type":"Feature","geometry":{"type":"Point","coordinates":[139.68703,35.663]},"properties":{"供用済面積":703,"供用開始年":1950,"公園名":"富ヶ谷公園","公園種別":"街区公園","所在地市区町村名":"渋谷区","所在地都道府県名":"東京都","管理市区町村":"渋谷区","管理都道府県・整備局":"東京都","都市計画決定":0}},{"type":"Feature","geometry":{"type":"Point","coordinates":[139.68011,35.67785]},"properties":{"供用済面積":3392,"供用開始年":1986,"公園名":"西原一丁目公園","公園種別":"街区公園","所在地市区町村名":"渋谷区","所在地都道府県名":"東京都","管理市区町村":"渋谷区","管理都道府県・整備局":"東京都","都市計画決定":0}},{"type":"Feature","geometry":{"type":"Point","coordinates":[139.68437,35.67358]},"properties":{"供用済面積":3306,"供用開始年":1964,"公園名":"代々木西原公園","公園種別":"街区公園","所在地市区町村名":"渋谷区","所在地都道府県名":"東京都","管理市区町村":"渋谷区","管理都道府県・整備局":"東京都","都市計画決定":0}},{"type":"Feature","geometry":{"type":"Point","coordinates":[139.67561,35.67174]},"properties":{"供用済面積":15096,"供用開始年":1950,"公園名":"代々木大山公園","公園種別":"近隣公園","所在地市区町村名":"渋谷区","所在地都道府県名":"東京都","管理市区町村":"渋谷区","管理都道府県・整備局":"東京都","都市計画決定":0}},{"type":"Feature","geometry":{"type":"Point","coordinates":[139.68074,35.68116]},"properties":{"供用済面積":284,"供用開始年":1978,"公園名":"本村ずい道公園","公園種別":"街区公園","所在地市区町村名":"渋谷区","所在地都道府県名":"東京都","管理市区町村":"渋谷区","管理都道府県・整備局":"東京都","都市計画決定":0}},{"type":"Feature","geometry":{"type":"Point","coordinates":[139.68265,35.69022]},"properties":{"供用済面積":1050,"供用開始年":1997,"公園名":"二軒家公園","公園種別":"街区公園","所在地市区町村名":"渋谷区","所在地都道府県名":"東京都","管理市区町村":"渋谷区","管理都道府県・整備局":"東京都","都市計画決定":0}},{"type":"Feature","geometry":{"type":"Point","coordinates":[139.67809,35.68382]},"properties":{"供用済面積":582,"供用開始年":2004,"公園名":"本町南児童公園","公園種別":"街区公園","所在地市区町村名":"渋谷区","所在地都道府県名":"東京都","管理市区町村":"渋谷区","管理都道府県・整備局":"東京都","都市計画決定":0}},{"type":"Feature","geometry":{"type":"Point","coordinates":[139.67715,35.68462]},"properties":{"供用済面積":627,"供用開始年":1992,"公園名":"本町氷川公園","公園種別":"街区公園","所在地市区町村名":"渋谷区","所在地都道府県名":"東京都","管理市区町村":"渋谷区","管理都道府県・整備局":"東京都","都市計画決定":0}},{"type":"Feature","geometry":{"type":"Point","coordinates":[139.66328806,35.67512077]},"properties":{"供用済面積":1416,"供用開始年":1978,"公園名":"十三号通り公園","公園種別":"街区公園","所在地市区町村名":"渋谷区","所在地都道府県名":"東京都","管理市区町村":"渋谷区","管理都道府県・整備局":"東京都","都市計画決定":0}},{"type":"Feature","geometry":{"type":"Point","coordinates":[139.66924,35.67669]},"properties":{"供用済面積":825,"供用開始年":1991,"公園名":"笹塚東公園","公園種別":"街区公園","所在地市区町村名":"渋谷区","所在地都道府県名":"東京都","管理市区町村":"渋谷区","管理都道府県・整備局":"東京都","都市計画決定":0}},{"type":"Feature","geometry":{"type":"Point","coordinates":[139.66873,35.67681]},"properties":{"供用済面積":622,"供用開始年":1978,"公園名":"九号通り公園","公園種別":"街区公園","所在地市区町村名":"渋谷区","所在地都道府県名":"東京都","管理市区町村":"渋谷区","管理都道府県・整備局":"東京都","都市計画決定":0}},{"type":"Feature","geometry":{"type":"Point","coordinates":[139.6662,35.67729]},"properties":{"供用済面積":1480,"供用開始年":1972,"公園名":"笹塚公園","公園種別":"街区公園","所在地市区町村名":"渋谷区","所在地都道府県名":"東京都","管理市区町村":"渋谷区","管理都道府県・整備局":"東京都","都市計画決定":0}},{"type":"Feature","geometry":{"type":"Point","coordinates":[139.67191,35.67458]},"properties":{"供用済面積":988,"供用開始年":1964,"公園名":"幡ヶ谷第一公園","公園種別":"街区公園","所在地市区町村名":"渋谷区","所在地都道府県名":"東京都","管理市区町村":"渋谷区","管理都道府県・整備局":"東京都","都市計画決定":0}},{"type":"Feature","geometry":{"type":"Point","coordinates":[139.67773,35.67996]},"properties":{"供用済面積":179,"供用開始年":1978,"公園名":"六号通り公園","公園種別":"街区公園","所在地市区町村名":"渋谷区","所在地都道府県名":"東京都","管理市区町村":"渋谷区","管理都道府県・整備局":"東京都","都市計画決定":0}},{"type":"Feature","geometry":{"type":"Point","coordinates":[139.6749,35.67907]},"properties":{"供用済面積":1031,"供用開始年":1978,"公園名":"七号通り公園","公園種別":"街区公園","所在地市区町村名":"渋谷区","所在地都道府県名":"東京都","管理市区町村":"渋谷区","管理都道府県・整備局":"東京都","都市計画決定":0}},{"type":"Feature","geometry":{"type":"Point","coordinates":[139.67113,35.6779]},"properties":{"供用済面積":2001,"供用開始年":1982,"公園名":"幡ヶ谷第三公園","公園種別":"街区公園","所在地市区町村名":"渋谷区","所在地都道府県名":"東京都","管理市区町村":"渋谷区","管理都道府県・整備局":"東京都","都市計画決定":0}},{"type":"Feature","geometry":{"type":"Point","coordinates":[139.67128,35.67909]},"properties":{"供用済面積":1099,"供用開始年":1963,"公園名":"幡ヶ谷第二公園","公園種別":"街区公園","所在地市区町村名":"渋谷区","所在地都道府県名":"東京都","管理市区町村":"渋谷区","管理都道府県・整備局":"東京都","都市計画決定":0}},{"type":"Feature","geometry":{"type":"Point","coordinates":[139.67456,35.68182]},"properties":{"供用済面積":1083,"供用開始年":1962,"公園名":"幡ヶ谷新道公園","公園種別":"街区公園","所在地市区町村名":"渋谷区","所在地都道府県名":"東京都","管理市区町村":"渋谷区","管理都道府県・整備局":"東京都","都市計画決定":0}},{"type":"Feature","geometry":{"type":"Point","coordinates":[139.69507,35.67907]},"properties":{"供用済面積":1162,"供用開始年":1976,"公園名":"代々木ポニー公園","公園種別":"近隣公園","所在地市区町村名":"渋谷区","所在地都道府県名":"東京都","管理市区町村":"渋谷区","管理都道府県・整備局":"東京都","都市計画決定":0}},{"type":"Feature","geometry":{"type":"Point","coordinates":[139.6927,35.67915]},"properties":{"供用済面積":2726,"供用開始年":2006,"公園名":"参宮橋公園","公園種別":"街区公園","所在地市区町村名":"渋谷区","所在地都道府県名":"東京都","管理市区町村":"渋谷区","管理都道府県・整備局":"東京都","都市計画決定":0}},{"type":"Feature","geometry":{"type":"Point","coordinates":[139.69095,35.67166]},"properties":{"供用済面積":4910,"供用開始年":1977,"公園名":"はるのおがわコミュニティパーク","公園種別":"総合公園","所在地市区町村名":"渋谷区","所在地都道府県名":"東京都","管理市区町村":"渋谷区","管理都道府県・整備局":"東京都","都市計画決定":0}},{"type":"Feature","geometry":{"type":"Point","coordinates":[139.71398147,35.6731693]},"properties":{"供用済面積":468,"供用開始年":1969,"公園名":"神宮前公園","公園種別":"街区公園","所在地市区町村名":"渋谷区","所在地都道府県名":"東京都","管理市区町村":"渋谷区","管理都道府県・整備局":"東京都","都市計画決定":0}},{"type":"Feature","geometry":{"type":"Point","coordinates":[139.70179726,35.66153102]},"properties":{"供用済面積":10808,"供用開始年":1953,"公園名":"宮下公園","公園種別":"街区公園","所在地市区町村名":"渋谷区","所在地都道府県名":"東京都","管理市区町村":"渋谷区","管理都道府県・整備局":"東京都","都市計画決定":0}},{"type":"Feature","geometry":{"type":"Point","coordinates":[139.70197,35.66499]},"properties":{"供用済面積":3128,"供用開始年":1953,"公園名":"神宮通公園","公園種別":"街区公園","所在地市区町村名":"渋谷区","所在地都道府県名":"東京都","管理市区町村":"渋谷区","管理都道府県・整備局":"東京都","都市計画決定":0}}],"name":"13113_shibuya-ku_pref_2023_park","type":"FeatureCollection"}