{"features":[{"type":"Feature","geometry":{"type":"Point","coordinates":[139.6908081057,35.6836070477]},"properties":{"名称":"関東地方整備局東京国道事務所代々木出張所","種類":"国の機関","高さ":"12.5"}},{"type":"Feature","geometry":{"type":"Point","coordinates":[139.7075658849,35.6718973352]},"properties":{"名称":"原宿警察署","種類":"警察署","高さ":"86.4"}},{"type":"Feature","geometry":{"type":"Point","coordinates":[139.6831506342,35.6798365884]},"properties":{"名称":"代々木警察署","種類":"警察署","高さ":"30.3"}},{"type":"Feature","geometry":{"type":"Point","coordinates":[139.7071711943,35.6679317456]},"properties":{"名称":"原宿警察署神宮前交番","種類":"警察署","高さ":"16.9"}},{"type":"Feature","geometry":{"type":"Point","coordinates":[139.7117853771,35.6808030258]},"properties":{"名称":"原宿警察署千駄ヶ谷駅前交番","種類":"警察署","高さ":"6.4"}},{"type":"Feature","geometry":{"type":"Point","coordinates":[139.7029342171,35.6870110473]},"properties":{"名称":"原宿警察署千駄ヶ谷五丁目交番","種類":"警察署","高さ":"7.2"}},{"type":"Feature","geometry":{"type":"Point","coordinates":[139.7019883067,35.6827357474]},"properties":{"名称":"原宿警察署代々木駅前交番","種類":"警察署","高さ":"7.1"}},{"type":"Feature","geometry":{"type":"Point","coordinates":[139.6966613534,35.686992887]},"properties":{"名称":"原宿警察署代々木二丁目交番","種類":"警察署","高さ":"6.2"}},{"type":"Feature","geometry":{"type":"Point","coordinates":[139.667315351,35.674658]},"properties":{"名称":"代々木警察署笹塚交番","種類":"警察署","高さ":"5.5"}},{"type":"Feature","geometry":{"type":"Point","coordinates":[139.6861238141,35.6813734783]},"properties":{"名称":"代々木警察署初台駅前交番","種類":"警察署","高さ":"8.8"}},{"type":"Feature","geometry":{"type":"Point","coordinates":[139.6875161032,35.6742922671]},"properties":{"名称":"代々木警察署初台二丁目交番","種類":"警察署","高さ":"7.1"}},{"type":"Feature","geometry":{"type":"Point","coordinates":[139.682722935,35.6888759699]},"properties":{"名称":"代々木警察署清水橋交番","種類":"警察署","高さ":"30.9"}},{"type":"Feature","geometry":{"type":"Point","coordinates":[139.6921119334,35.6677059669]},"properties":{"名称":"代々木警察署代々木公園交番","種類":"警察署","高さ":"7.1"}},{"type":"Feature","geometry":{"type":"Point","coordinates":[139.6790858016,35.6684246282]},"properties":{"名称":"代々木警察署代々木上原駅前交番","種類":"警察署","高さ":"17.8"}},{"type":"Feature","geometry":{"type":"Point","coordinates":[139.6746543416,35.676363829]},"properties":{"名称":"代々木警察署幡ケ谷駅前交番","種類":"警察署","高さ":"7.1"}},{"type":"Feature","geometry":{"type":"Point","coordinates":[139.680146244,35.6829176896]},"properties":{"名称":"代々木警察署不動前交番","種類":"警察署","高さ":"6.6"}},{"type":"Feature","geometry":{"type":"Point","coordinates":[139.7023729266,35.6799754364]},"properties":{"名称":"東京消防庁渋谷消防署原宿出張所","種類":"消防署","高さ":"18.2"}},{"type":"Feature","geometry":{"type":"Point","coordinates":[139.6846834534,35.6804829787]},"properties":{"名称":"東京消防庁渋谷消防署代々木出張所","種類":"消防署","高さ":"20.8"}},{"type":"Feature","geometry":{"type":"Point","coordinates":[139.7087866464,35.6778807563]},"properties":{"名称":"桜美林大学四谷キャンパス","種類":"学校","高さ":"17.9"}},{"type":"Feature","geometry":{"type":"Point","coordinates":[139.7080867951,35.668023105]},"properties":{"名称":"区立神宮前小学校","種類":"学校","高さ":"15.8"}},{"type":"Feature","geometry":{"type":"Point","coordinates":[139.6868232925,35.6692843767]},"properties":{"名称":"区立富谷小学校","種類":"学校","高さ":"18.2"}},{"type":"Feature","geometry":{"type":"Point","coordinates":[139.715597107,35.6727736051]},"properties":{"名称":"都立青山高等学校","種類":"学校","高さ":"28.6"}},{"type":"Feature","geometry":{"type":"Point","coordinates":[139.714706236,35.6738365347]},"properties":{"名称":"私立國學院高等学校","種類":"学校","高さ":"28.6"}},{"type":"Feature","geometry":{"type":"Point","coordinates":[139.6785969021,35.6739823787]},"properties":{"名称":"区立西原小学校","種類":"学校","高さ":"16"}},{"type":"Feature","geometry":{"type":"Point","coordinates":[139.6833300626,35.6744174379]},"properties":{"名称":"区立代々木中学校","種類":"学校","高さ":"21.5"}},{"type":"Feature","geometry":{"type":"Point","coordinates":[139.7078174159,35.6753643254]},"properties":{"名称":"区立千駄谷小学校","種類":"学校","高さ":"18.8"}},{"type":"Feature","geometry":{"type":"Point","coordinates":[139.6691505422,35.67619774]},"properties":{"名称":"区立笹塚小学校","種類":"学校","高さ":"20.8"}},{"type":"Feature","geometry":{"type":"Point","coordinates":[139.6670949311,35.6768366402]},"properties":{"名称":"私立富士見丘高等学校","種類":"学校","高さ":"31.8"}},{"type":"Feature","geometry":{"type":"Point","coordinates":[139.6685355122,35.6778364201]},"properties":{"名称":"区立笹塚中学校","種類":"学校","高さ":"19.2"}},{"type":"Feature","geometry":{"type":"Point","coordinates":[139.6842130537,35.6791641192]},"properties":{"名称":"区立幡代小学校","種類":"学校","高さ":"16.6"}},{"type":"Feature","geometry":{"type":"Point","coordinates":[139.6733022825,35.6807177694]},"properties":{"名称":"区立中幡小学校","種類":"学校","高さ":"18.9"}},{"type":"Feature","geometry":{"type":"Point","coordinates":[139.6948174058,35.6813087982]},"properties":{"名称":"区立代々木山谷小学校","種類":"学校","高さ":"21.3"}},{"type":"Feature","geometry":{"type":"Point","coordinates":[139.7060118668,35.682614316]},"properties":{"名称":"区立鳩森小学校","種類":"学校","高さ":"12"}},{"type":"Feature","geometry":{"type":"Point","coordinates":[139.6851343052,35.6872599085]},"properties":{"名称":"私立関東国際高等学校","種類":"学校","高さ":"13.9"}},{"type":"Feature","geometry":{"type":"Point","coordinates":[139.705650695,35.6735587854]},"properties":{"名称":"区立原宿外苑中学校","種類":"学校","高さ":"23"}},{"type":"Feature","geometry":{"type":"Point","coordinates":[139.6779884632,35.6812505894]},"properties":{"名称":"帝京短期大学","種類":"学校","高さ":"20.1"}},{"type":"Feature","geometry":{"type":"Point","coordinates":[139.6775501207,35.6669537178]},"properties":{"名称":"区立上原中学校","種類":"学校","高さ":"18.1"}},{"type":"Feature","geometry":{"type":"Point","coordinates":[139.6941951358,35.6858419474]},"properties":{"名称":"文化学園大学","種類":"学校","高さ":"93"}},{"type":"Feature","geometry":{"type":"Point","coordinates":[139.6820288045,35.6860364594]},"properties":{"名称":"区立渋谷本町学園中学校","種類":"学校","高さ":"20.2"}},{"type":"Feature","geometry":{"type":"Point","coordinates":[139.7106306565,35.6805064862]},"properties":{"名称":"津田塾大学千駄ヶ谷キャンパス","種類":"学校","高さ":"25.5"}},{"type":"Feature","geometry":{"type":"Point","coordinates":[139.6999130664,35.6856125675]},"properties":{"名称":"JR東京総合病院","種類":"病院","高さ":"69.8"}},{"type":"Feature","geometry":{"type":"Point","coordinates":[139.6750859417,35.6771422992]},"properties":{"名称":"クロス病院","種類":"病院","高さ":"19.1"}},{"type":"Feature","geometry":{"type":"Point","coordinates":[139.6860331541,35.679551208]},"properties":{"名称":"内藤病院","種類":"病院","高さ":"14.6"}},{"type":"Feature","geometry":{"type":"Point","coordinates":[139.7094647663,35.6809598867]},"properties":{"名称":"代々木病院","種類":"病院","高さ":"27"}},{"type":"Feature","geometry":{"type":"Point","coordinates":[139.7051191946,35.6666715752]},"properties":{"名称":"神宮前六郵便局","種類":"郵便局","高さ":"10.1"}},{"type":"Feature","geometry":{"type":"Point","coordinates":[139.6905268035,35.6680908365]},"properties":{"名称":"渋谷富ケ谷一郵便局","種類":"郵便局","高さ":"16.1"}},{"type":"Feature","geometry":{"type":"Point","coordinates":[139.682363072,35.6696202577]},"properties":{"名称":"渋谷上原郵便局","種類":"郵便局","高さ":"13.3"}},{"type":"Feature","geometry":{"type":"Point","coordinates":[139.7094562854,35.6727347155]},"properties":{"名称":"渋谷神宮前郵便局","種類":"郵便局","高さ":"9.9"}},{"type":"Feature","geometry":{"type":"Point","coordinates":[139.6646228802,35.6739332294]},"properties":{"名称":"渋谷笹塚郵便局","種類":"郵便局","高さ":"10"}},{"type":"Feature","geometry":{"type":"Point","coordinates":[139.7081633471,35.6794221261]},"properties":{"名称":"渋谷千駄ケ谷郵便局","種類":"郵便局","高さ":"9.8"}},{"type":"Feature","geometry":{"type":"Point","coordinates":[139.6939774958,35.6828124172]},"properties":{"名称":"代々木三郵便局","種類":"郵便局","高さ":"13.5"}},{"type":"Feature","geometry":{"type":"Point","coordinates":[139.6753890331,35.6833397797]},"properties":{"名称":"渋谷本町五郵便局","種類":"郵便局","高さ":"16.9"}},{"type":"Feature","geometry":{"type":"Point","coordinates":[139.7035196966,35.6875229773]},"properties":{"名称":"日本貨物鉄道株式会社","種類":"指定公共機関","高さ":"41.3"}},{"type":"Feature","geometry":{"type":"Point","coordinates":[139.7001395763,35.6873056871]},"properties":{"名称":"東日本旅客鉄道株式会社(本社)","種類":"指定公共機関","高さ":"157.6"}},{"type":"Feature","geometry":{"type":"Point","coordinates":[139.6800195012,35.6677715179]},"properties":{"名称":"古賀政男音楽博物館","種類":"博物館・美術館","高さ":"42.5"}},{"type":"Feature","geometry":{"type":"Point","coordinates":[139.7049284641,35.6694754557]},"properties":{"名称":"太田記念美術館","種類":"博物館・美術館","高さ":"11.2"}},{"type":"Feature","geometry":{"type":"Point","coordinates":[139.6950171756,35.6862623282]},"properties":{"名称":"文化学園服飾博物館","種類":"博物館・美術館","高さ":"105.4"}},{"type":"Feature","geometry":{"type":"Point","coordinates":[139.6979674046,35.6799801969]},"properties":{"名称":"明治神宮宝物殿","種類":"博物館・美術館","高さ":"18.3"}},{"type":"Feature","geometry":{"type":"Point","coordinates":[139.6972683322,35.6641319785]},"properties":{"名称":"東京国税局渋谷税務署","種類":"国の機関","高さ":"27.5"}},{"type":"Feature","geometry":{"type":"Point","coordinates":[139.7010896141,35.6648229156]},"properties":{"名称":"東京労働局渋谷公共職業安定所","種類":"国の機関","高さ":"26"}},{"type":"Feature","geometry":{"type":"Point","coordinates":[139.6977260133,35.6636735661]},"properties":{"名称":"渋谷区役所","種類":"ランドマーク","高さ":"62.4"}},{"type":"Feature","geometry":{"type":"Point","coordinates":[139.7040505734,35.6617985949]},"properties":{"名称":"渋谷区保健所","種類":"保健所","高さ":"13.5"}},{"type":"Feature","geometry":{"type":"Point","coordinates":[139.7040093227,35.6578302785]},"properties":{"名称":"渋谷警察署","種類":"警察署","高さ":"55.9"}},{"type":"Feature","geometry":{"type":"Point","coordinates":[139.7094345621,35.6475335335]},"properties":{"名称":"渋谷警察署恵比寿駅前交番","種類":"警察署","高さ":"10.3"}},{"type":"Feature","geometry":{"type":"Point","coordinates":[139.7151817625,35.6439568326]},"properties":{"名称":"渋谷警察署恵比寿四丁目交番","種類":"警察署","高さ":"12.5"}},{"type":"Feature","geometry":{"type":"Point","coordinates":[139.7031235,35.6617290729]},"properties":{"名称":"渋谷警察署美竹交番","種類":"警察署","高さ":"5.8"}},{"type":"Feature","geometry":{"type":"Point","coordinates":[139.7191151231,35.6489869126]},"properties":{"名称":"渋谷警察署広尾五丁目交番","種類":"警察署","高さ":"6.6"}},{"type":"Feature","geometry":{"type":"Point","coordinates":[139.7010621255,35.6593079019]},"properties":{"名称":"渋谷警察署渋谷駅前交番","種類":"警察署","高さ":"11.6"}},{"type":"Feature","geometry":{"type":"Point","coordinates":[139.7126720236,35.6584737741]},"properties":{"名称":"渋谷警察署常磐松交番","種類":"警察署","高さ":"6.8"}},{"type":"Feature","geometry":{"type":"Point","coordinates":[139.7017926018,35.6472711444]},"properties":{"名称":"渋谷警察署代官山交番","種類":"警察署","高さ":"33.7"}},{"type":"Feature","geometry":{"type":"Point","coordinates":[139.7078465526,35.6538791739]},"properties":{"名称":"渋谷警察署東交番","種類":"警察署","高さ":"6.6"}},{"type":"Feature","geometry":{"type":"Point","coordinates":[139.6955764022,35.6575256519]},"properties":{"名称":"渋谷警察署道玄坂上交番","種類":"警察署","高さ":"65.8"}},{"type":"Feature","geometry":{"type":"Point","coordinates":[139.7171362142,35.6549403029]},"properties":{"名称":"渋谷警察署日赤病院前交番","種類":"警察署","高さ":"12.7"}},{"type":"Feature","geometry":{"type":"Point","coordinates":[139.6981694918,35.652894865]},"properties":{"名称":"渋谷警察署鉢山交番","種類":"警察署","高さ":"4.1"}},{"type":"Feature","geometry":{"type":"Point","coordinates":[139.7011665394,35.6643407611]},"properties":{"名称":"東京消防庁渋谷消防署","種類":"消防署","高さ":"27.7"}},{"type":"Feature","geometry":{"type":"Point","coordinates":[139.6881518821,35.6648162871]},"properties":{"名称":"東京消防庁渋谷消防署富ヶ谷出張所","種類":"消防署","高さ":"28.3"}},{"type":"Feature","geometry":{"type":"Point","coordinates":[139.7131620126,35.643865093]},"properties":{"名称":"東京消防庁渋谷消防署恵比寿出張所","種類":"消防署","高さ":"18.3"}},{"type":"Feature","geometry":{"type":"Point","coordinates":[139.6919988729,35.6594500955]},"properties":{"名称":"東京消防庁渋谷消防署松濤出張所","種類":"消防署","高さ":"11.8"}},{"type":"Feature","geometry":{"type":"Point","coordinates":[139.7143727314,35.6441421326]},"properties":{"名称":"区立加計塚小学校","種類":"学校","高さ":"17.7"}},{"type":"Feature","geometry":{"type":"Point","coordinates":[139.7228417033,35.6467253923]},"properties":{"名称":"私立慶應義塾幼稚舎","種類":"学校","高さ":"18.6"}},{"type":"Feature","geometry":{"type":"Point","coordinates":[139.7060116214,35.6471977036]},"properties":{"名称":"区立長谷戸小学校","種類":"学校","高さ":"24.5"}},{"type":"Feature","geometry":{"type":"Point","coordinates":[139.716862823,35.6493493927]},"properties":{"名称":"区立臨川小学校","種類":"学校","高さ":"16.1"}},{"type":"Feature","geometry":{"type":"Point","coordinates":[139.6987221113,35.6502618548]},"properties":{"名称":"都立第一商業高等学校","種類":"学校","高さ":"25.7"}},{"type":"Feature","geometry":{"type":"Point","coordinates":[139.7017541419,35.6511095645]},"properties":{"名称":"区立猿楽小学校","種類":"学校","高さ":"15.9"}},{"type":"Feature","geometry":{"type":"Point","coordinates":[139.7120928727,35.6518155736]},"properties":{"名称":"区立広尾小学校","種類":"学校","高さ":"23.9"}},{"type":"Feature","geometry":{"type":"Point","coordinates":[139.7121392725,35.6534085744]},"properties":{"名称":"都立広尾高等学校","種類":"学校","高さ":"16"}},{"type":"Feature","geometry":{"type":"Point","coordinates":[139.7031505512,35.6533365953]},"properties":{"名称":"区立鉢山中学校","種類":"学校","高さ":"21"}},{"type":"Feature","geometry":{"type":"Point","coordinates":[139.710344993,35.6556976839]},"properties":{"名称":"区立常磐松小学校","種類":"学校","高さ":"20.2"}},{"type":"Feature","geometry":{"type":"Point","coordinates":[139.7172233433,35.6557763631]},"properties":{"名称":"私立東京女学館高等学校","種類":"学校","高さ":"36.5"}},{"type":"Feature","geometry":{"type":"Point","coordinates":[139.7099492735,35.6572065737]},"properties":{"名称":"私立実践女子学園高等学校","種類":"学校","高さ":"26.5"}},{"type":"Feature","geometry":{"type":"Point","coordinates":[139.6910110416,35.661144887]},"properties":{"名称":"区立松濤中学校","種類":"学校","高さ":"20.7"}},{"type":"Feature","geometry":{"type":"Point","coordinates":[139.697598832,35.663113846]},"properties":{"名称":"区立神南小学校","種類":"学校","高さ":"14.4"}},{"type":"Feature","geometry":{"type":"Point","coordinates":[139.7030663016,35.6638842237]},"properties":{"名称":"私立渋谷教育学園渋谷高等学校","種類":"学校","高さ":"28.6"}},{"type":"Feature","geometry":{"type":"Point","coordinates":[139.6845449338,35.6644976423]},"properties":{"名称":"東海大学代々木キャンパス","種類":"学校","高さ":"27.3"}},{"type":"Feature","geometry":{"type":"Point","coordinates":[139.6790324211,35.6663003287]},"properties":{"名称":"区立上原小学校","種類":"学校","高さ":"18.4"}},{"type":"Feature","geometry":{"type":"Point","coordinates":[139.7200613336,35.6513587325]},"properties":{"名称":"聖心女子大学","種類":"学校","高さ":"24.9"}},{"type":"Feature","geometry":{"type":"Point","coordinates":[139.7190177038,35.6532405929]},"properties":{"名称":"日本赤十字看護大学広尾キャンパス","種類":"学校","高さ":"34.3"}},{"type":"Feature","geometry":{"type":"Point","coordinates":[139.709487195,35.6602193631]},"properties":{"名称":"青山学院大学青山キャンパス","種類":"学校","高さ":"39.2"}},{"type":"Feature","geometry":{"type":"Point","coordinates":[139.7124250727,35.6542388537]},"properties":{"名称":"区立広尾中学校","種類":"学校","高さ":"19.8"}},{"type":"Feature","geometry":{"type":"Point","coordinates":[139.7114531008,35.6555091822]},"properties":{"名称":"國學院大學渋谷キャンパス","種類":"学校","高さ":"83.6"}},{"type":"Feature","geometry":{"type":"Point","coordinates":[139.6889801319,35.6605055663]},"properties":{"名称":"ヤマザキ動物看護大学(渋谷キャンパス)","種類":"学校","高さ":"23.4"}},{"type":"Feature","geometry":{"type":"Point","coordinates":[139.7100855865,35.657963124]},"properties":{"名称":"実践女子大学渋谷キャンパス","種類":"学校","高さ":"78.9"}},{"type":"Feature","geometry":{"type":"Point","coordinates":[139.7216658864,35.6470185373]},"properties":{"名称":"東京都立広尾病院","種類":"病院","高さ":"44.4"}},{"type":"Feature","geometry":{"type":"Point","coordinates":[139.717952214,35.6543794334]},"properties":{"名称":"日本赤十字社医療センター","種類":"病院","高さ":"69.7"}},{"type":"Feature","geometry":{"type":"Point","coordinates":[139.716695893,35.6456992628]},"properties":{"名称":"渋谷恵比寿郵便局","種類":"郵便局","高さ":"14.7"}},{"type":"Feature","geometry":{"type":"Point","coordinates":[139.7080531824,35.6462317136]},"properties":{"名称":"恵比寿駅前郵便局","種類":"郵便局","高さ":"35.9"}},{"type":"Feature","geometry":{"type":"Point","coordinates":[139.7208105926,35.6483586226]},"properties":{"名称":"渋谷広尾郵便局","種類":"郵便局","高さ":"29.7"}},{"type":"Feature","geometry":{"type":"Point","coordinates":[139.7129034825,35.6487029837]},"properties":{"名称":"渋谷橋郵便局","種類":"郵便局","高さ":"36.1"}},{"type":"Feature","geometry":{"type":"Point","coordinates":[139.7019438212,35.6489365738]},"properties":{"名称":"渋谷代官山郵便局","種類":"郵便局","高さ":"10.3"}},{"type":"Feature","geometry":{"type":"Point","coordinates":[139.7011681225,35.6542912745]},"properties":{"名称":"渋谷桜丘郵便局","種類":"郵便局","高さ":"15.6"}},{"type":"Feature","geometry":{"type":"Point","coordinates":[139.704684217,35.6560750741]},"properties":{"名称":"渋谷三郵便局","種類":"郵便局","高さ":"22"}},{"type":"Feature","geometry":{"type":"Point","coordinates":[139.696182521,35.6571852998]},"properties":{"名称":"渋谷道玄坂郵便局","種類":"郵便局","高さ":"30.9"}},{"type":"Feature","geometry":{"type":"Point","coordinates":[139.6990257307,35.6573737147]},"properties":{"名称":"渋谷中央街郵便局","種類":"郵便局","高さ":"19.9"}},{"type":"Feature","geometry":{"type":"Point","coordinates":[139.6852966608,35.6632882573]},"properties":{"名称":"渋谷富ケ谷二郵便局","種類":"郵便局","高さ":"14.6"}},{"type":"Feature","geometry":{"type":"Point","coordinates":[139.6951267928,35.6601828655]},"properties":{"名称":"渋谷松濤郵便局","種類":"郵便局","高さ":"25"}},{"type":"Feature","geometry":{"type":"Point","coordinates":[139.7180519447,35.6562993737]},"properties":{"名称":"渋谷広尾四郵便局","種類":"郵便局","高さ":"6.7"}},{"type":"Feature","geometry":{"type":"Point","coordinates":[139.6960735936,35.6648530659]},"properties":{"名称":"日本放送協会(本部)","種類":"指定公共機関","高さ":"75.7"}},{"type":"Feature","geometry":{"type":"Point","coordinates":[139.701020814,35.6637134147]},"properties":{"名称":"東京電力パワーグリッド株式会社渋谷支社","種類":"指定公共機関","高さ":"24"}},{"type":"Feature","geometry":{"type":"Point","coordinates":[139.7137772637,35.6533117739]},"properties":{"名称":"山種美術館","種類":"博物館・美術館","高さ":"27.4"}},{"type":"Feature","geometry":{"type":"Point","coordinates":[139.6927899242,35.6614411109]},"properties":{"名称":"戸栗美術館","種類":"博物館・美術館","高さ":"13.9"}},{"type":"Feature","geometry":{"type":"Point","coordinates":[139.6951026425,35.6606048059]},"properties":{"名称":"Bunkamuraザ・ミュージアム","種類":"博物館・美術館","高さ":"37.4"}},{"type":"Feature","geometry":{"type":"Point","coordinates":[139.7012234071,35.6885184075]},"properties":{"名称":"新宿ミライナタワー","種類":"ランドマーク","高さ":"133.7"}},{"type":"Feature","geometry":{"type":"Point","coordinates":[139.7004332066,35.6864188178]},"properties":{"名称":"小田急ホテルセンチュリーサザンタワー","種類":"ランドマーク","高さ":"153.5"}},{"type":"Feature","geometry":{"type":"Point","coordinates":[139.7031030069,35.6844627272]},"properties":{"名称":"ＮＴＴドコモ代々木ビル","種類":"ランドマーク","高さ":"240.6"}},{"type":"Feature","geometry":{"type":"Point","coordinates":[139.7036730034,35.659092335]},"properties":{"名称":"渋谷ヒカリエ","種類":"ランドマーク","高さ":"173.6"}},{"type":"Feature","geometry":{"type":"Point","coordinates":[139.6994076017,35.6563595455]},"properties":{"名称":"セルリアンタワー東急ホテル","種類":"ランドマーク","高さ":"164"}},{"type":"Feature","geometry":{"type":"Point","coordinates":[139.6988439023,35.6582886653]},"properties":{"名称":"マークシティ","種類":"ランドマーク","高さ":"98"}},{"type":"Feature","geometry":{"type":"Point","coordinates":[139.703157303,35.6572625149]},"properties":{"名称":"渋谷ストリーム","種類":"ランドマーク","高さ":"171.3"}},{"type":"Feature","geometry":{"type":"Point","coordinates":[139.6981300325,35.6610551762]},"properties":{"名称":"渋谷警察署宇田川交番","種類":"警察署","高さ":"6.7"}}],"name":"13113_shibuya-ku_pref_2023_landmark","type":"FeatureCollection"}