{"features":[{"type":"Feature","geometry":{"type":"MultiLineString","coordinates":[[[139.6993077450665,35.68869903523565],[139.69909347685575,35.6886100328054],[139.69879347457584,35.68850003358659],[139.6979972612992,35.68818932075149]],[[139.6929579239211,35.68556797053902],[139.69284342264893,35.685480051283434],[139.6926349117264,35.685331434071514]],[[139.69102832451415,35.68419654118189],[139.6907755368543,35.68402153701618],[139.690773401309,35.684020058584395],[139.6883364201941,35.68233906404225],[139.68832337700258,35.68233006703343],[139.6882982986383,35.68231334836702],[139.68757336985493,35.681830069533305],[139.68745336869995,35.68175006993545],[139.68579335281117,35.680690075493885],[139.6854133492668,35.68046007675349],[139.68491334484224,35.68019007835045],[139.68286332844013,35.679320084469964],[139.68192332032447,35.67884008748206],[139.68102331291777,35.6784300902807],[139.68011330582908,35.67807009301066],[139.67950330138,35.6778700947591],[139.67895329751775,35.677710096295584],[139.67719328524674,35.677210101216815],[139.67675328228893,35.67710010242041],[139.6751332707022,35.67660010709454],[139.67463326692018,35.676440108641486],[139.6725232509733,35.675800115253764],[139.6715032433334,35.675500118453385],[139.67099323951345,35.67535012005925],[139.67089600321026,35.67532789400536],[139.67038323494,35.67517012198698],[139.66839322048008,35.674610128110146],[139.66619320448012,35.67397013480837],[139.66407318910672,35.67336014117768],[139.6618131724556,35.67271014782216],[139.66148439725967,35.67261982658203]]]},"properties":{"任意ID":36,"区分":"第１次緊急輸送道路","枝ID":2,"行政区域":13113,"資料名称":"東京都緊急輸送道路ネットワーク計画図","資料年月":"2019","路線名称":"国道20号","道路種別":"一般国道"}},{"type":"Feature","geometry":{"type":"MultiLineString","coordinates":[[[139.7103893570146,35.662925592906106],[139.7103133327513,35.66286005565553],[139.7094033254507,35.66229005862783],[139.70873331995995,35.66185006085004],[139.70819331564155,35.66151006261674],[139.70751331020574,35.66108006484444],[139.70678330439796,35.660620067233424],[139.7063233007466,35.66033006873903],[139.70608329833306,35.66010006965564],[139.7057432952164,35.659820070877856],[139.7052332901626,35.65934007281112],[139.70511328892985,35.65922007327799],[139.70485328619668,35.658950074305665],[139.7046032833756,35.65866007534447],[139.70408327830137,35.65816007727574],[139.7038652677503,35.6580862359981],[139.7034632747526,35.657950078933254],[139.7033032741498,35.65795007928892],[139.70315433427766,35.65791593337224],[139.7030932730711,35.6579000798223],[139.70287327189783,35.65784008039111],[139.70278327144422,35.65782008061785],[139.70159326490966,35.657460083742194],[139.70030325756954,35.65702008719563],[139.6984332463611,35.65641009224504],[139.6976232414679,35.656150094449686],[139.6969132375067,35.65598009630952],[139.6964132347722,35.65587009760924],[139.6958532321246,35.65582009896258],[139.69544322994,35.65574010001785],[139.69520322852998,35.65567010067002],[139.69495322679438,35.655550101419294],[139.69475322493008,35.655370102143934],[139.69455322283886,35.655150102929326],[139.69391321617013,35.65445010545318],[139.6937732146722,35.65429010601849],[139.69350321194554,35.654010107069666],[139.69331733818706,35.65388056038177]]]},"properties":{"任意ID":37,"区分":"第１次緊急輸送道路","枝ID":3,"行政区域":13113,"資料名称":"東京都緊急輸送道路ネットワーク計画図","資料年月":"2019","路線名称":"国道246号","道路種別":"一般国道"}},{"type":"Feature","geometry":{"type":"MultiLineString","coordinates":[[[139.68229339921777,35.688850064214535],[139.68224622491255,35.68882984696478],[139.68208339747127,35.688760064844416],[139.68134339209337,35.68854006683779],[139.68066338716903,35.68834006866456],[139.68036338498223,35.68825006947458],[139.67976338052893,35.68806007111783],[139.67945337829337,35.687970071947916],[139.67903337520022,35.68784007309125],[139.67826336967562,35.68762007514448],[139.67814458570766,35.68758352682281]]]},"properties":{"任意ID":58,"区分":"第３次緊急輸送道路","枝ID":4,"行政区域":13113,"資料名称":"東京都緊急輸送道路ネットワーク計画図","資料年月":"2019","路線名称":"新宿国立線","道路種別":"主要地方道（都道府県道）"}},{"type":"Feature","geometry":{"type":"MultiLineString","coordinates":[[[139.71000324219824,35.64821007750601],[139.7104432451447,35.64846007616018],[139.71084324778747,35.648680074951756],[139.71114324985706,35.64886007402805],[139.71123325051212,35.648920073743284],[139.7111532508494,35.64903007377262],[139.71068325098815,35.64935007438709],[139.71043325116977,35.6495400746831],[139.71016325172639,35.64981007490974],[139.71009325186992,35.64988007496794],[139.70998325215112,35.65000007504449],[139.7095432536065,35.65051007534231],[139.709253254641,35.650860075519915],[139.70907325630128,35.65125007540013],[139.70904325684342,35.65136007532044],[139.70896326104446,35.65212007448446],[139.70888326506486,35.652850073689024],[139.70879326639033,35.65313007351557],[139.7087132669841,35.653280073493306],[139.7085532675802,35.65348007358233],[139.70833326813204,35.653710073764444],[139.70800326898404,35.654060074031065],[139.70672327072464,35.6551600754089],[139.70657327081346,35.65527007559564],[139.70651327088365,35.6553200756623],[139.70610327169936,35.655720076039984],[139.7056532723576,35.65612007650668],[139.705423272316,35.65626007683113],[139.70492327236786,35.65659007750236],[139.7042532728159,35.6571000783112],[139.7039832731324,35.65733007860467],[139.70352864661413,35.65764222446796],[139.70315433427766,35.65791593337224],[139.70307327357068,35.658000079733426],[139.70252779623627,35.65910285726295],[139.70234328134188,35.65968007866678],[139.7023832852684,35.66027007759453],[139.70225329519178,35.66190007516667],[139.70219330032853,35.66274007390001],[139.70212330433708,35.6634100729388],[139.7021133048729,35.663500072811246],[139.70223330873114,35.664030071661216],[139.70236331090496,35.66429007093899],[139.7030633198832,35.665260067766724],[139.7041033330902,35.6666700631057],[139.70545335095017,35.668450057138955],[139.70555335225993,35.66858005670008],[139.70593335742012,35.669100054989144],[139.70629336236004,35.669600053355566],[139.70676336837005,35.67019005132801],[139.70722337469,35.67083004923887],[139.70769338049013,35.67139004726124],[139.70814338641992,35.671980045277905],[139.7082233877902,35.67213004485012],[139.70823338874015,35.67226004461111],[139.7082333893701,35.672350044461155],[139.70821338998996,35.672450044338916],[139.70817339088,35.67260004417773],[139.70803339270014,35.67294004392238],[139.70764339660002,35.67372004348903],[139.7074133985501,35.674130043316666],[139.70711340099,35.674650043116685],[139.70697340204015,35.674880043044425],[139.70679340396498,35.675230042826115],[139.7067034054088,35.67546004260657],[139.70669340560414,35.6754900425741],[139.70664340665837,35.67565004239299],[139.70654340923625,35.6760300419196],[139.70641341255316,35.67652004130872],[139.70622341750322,35.67725004038431],[139.70606342053293,35.6777200398663],[139.7056034232711,35.67831003976329],[139.70526342555024,35.678780039614935],[139.7050734266437,35.679020039570105],[139.70482342865682,35.679410039369145],[139.70466343010162,35.67968003919947],[139.70458343179666,35.67994003887884],[139.70456343397268,35.68023003837601],[139.7045634361533,35.68051003785007],[139.70456343701005,35.68062003764334],[139.7045634384898,35.68081003728673],[139.70461344305988,35.68137003613208],[139.70462344956718,35.682200034553716],[139.70461345155047,35.682460034086034],[139.7046334556852,35.68298003306984],[139.70460346012453,35.68356003204116],[139.70453346094894,35.68370003191774],[139.7044634613734,35.683790031887725],[139.70417346302895,35.68415003178427],[139.70391346489112,35.68452003159712],[139.70378346650216,35.684790031340185],[139.70370346816446,35.68504003102174],[139.70350347316003,35.68577003002082],[139.703273478269,35.686530029012204],[139.7031634810046,35.6869300284564],[139.70307348326446,35.68726002799485],[139.70289124244513,35.687883497006794]]]},"properties":{"任意ID":97,"区分":"第２次緊急輸送道路","枝ID":1,"行政区域":13113,"資料名称":"東京都緊急輸送道路ネットワーク計画図","資料年月":"2019","路線名称":"芝新宿王子線","道路種別":"主要地方道（都道府県道）"}},{"type":"Feature","geometry":{"type":"MultiLineString","coordinates":[[[139.7227599278762,35.64467283103606],[139.72219326349125,35.64472005416212],[139.72179326232788,35.64475005503624]]]},"properties":{"任意ID":97,"区分":"第２次緊急輸送道路","枝ID":2,"行政区域":13113,"資料名称":"東京都緊急輸送道路ネットワーク計画図","資料年月":"2019","路線名称":"芝新宿王子線","道路種別":"主要地方道（都道府県道）"}},{"type":"Feature","geometry":{"type":"MultiLineString","coordinates":[[[139.6817428643978,35.69066366196359],[139.6817234062712,35.690080062484526],[139.6817334046401,35.68987006295458],[139.6817734033957,35.68969006329445],[139.68184340237792,35.68952006355124],[139.68192340100893,35.68930006390451],[139.6821433994446,35.68897006423458],[139.68224622491255,35.68882984696478],[139.68225339878222,35.68882006436445],[139.68240339799559,35.68863006450789],[139.68338339518675,35.68768006476449],[139.68414339322226,35.686970064901175],[139.68472790283644,35.68638555366359]],[[139.68823800615024,35.68237543790287],[139.68824737691455,35.68236606711332],[139.6882533768984,35.68236006711339],[139.6882982986383,35.68231334836702],[139.68850337614492,35.68210006713343],[139.68865337580894,35.68196006711332],[139.68880337488258,35.68174006725337],[139.68886337383344,35.68156006749359],[139.68888337252554,35.68137006783331],[139.68889337013968,35.68104006847358],[139.68888336758766,35.68070006917338],[139.6888633649902,35.680360069893254],[139.68876335952177,35.679680071453504],[139.6886133530196,35.678890073333434],[139.6884233479617,35.67832007485333],[139.68828334423824,35.67790007597341],[139.68808333929212,35.67735007747336],[139.68789333527786,35.67692007871335],[139.68783333339275,35.67670007927336],[139.68778333140642,35.67646007985354],[139.68777332468187,35.67555008169336],[139.68778331768567,35.67455008367028],[139.68778330674013,35.67291008693775],[139.6878132955245,35.671210090262036],[139.68791328193583,35.669110094228984],[139.6879335915329,35.66782413127953],[139.6879335914757,35.66781555986785],[139.68792327129415,35.667510097389425],[139.687963265789,35.66666009898904],[139.6879532638468,35.66636009951117],[139.68787325926553,35.66569010080576],[139.68782325633106,35.66526010163335],[139.68765324788683,35.66404010404449],[139.68757324216563,35.66319010563899],[139.68753323832345,35.662610106694444],[139.6875132356422,35.66220010742222],[139.68756323408024,35.6619201077778],[139.68768323281336,35.661640107977746],[139.6878632319266,35.66138010801109],[139.68851322954117,35.660570107916726],[139.68920322751444,35.65979010768325],[139.68990322540344,35.658990107461136],[139.6906432233302,35.65815010720138],[139.69084322219123,35.657800107308105],[139.6909732208136,35.65746010755282],[139.69098321943898,35.657210107923675],[139.6909132175566,35.656930108522374],[139.6908932171889,35.65688010864653],[139.69084001469312,35.65672050491833]]]},"properties":{"任意ID":107,"区分":"第２次緊急輸送道路","枝ID":1,"行政区域":13113,"資料名称":"東京都緊急輸送道路ネットワーク計画図","資料年月":"2019","路線名称":"環状六号線","道路種別":"主要地方道（都道府県道）"}},{"type":"Feature","geometry":{"type":"MultiLineString","coordinates":[[[139.7021316867251,35.64652394986779],[139.70222320595576,35.64655009783462],[139.70239320676058,35.64659009737716]]]},"properties":{"任意ID":107,"区分":"第２次緊急輸送道路","枝ID":2,"行政区域":13113,"資料名称":"東京都緊急輸送道路ネットワーク計画図","資料年月":"2019","路線名称":"環状六号線","道路種別":"主要地方道（都道府県道）"}},{"type":"Feature","geometry":{"type":"MultiLineString","coordinates":[[[139.71347246086424,35.65889713605403],[139.71319331699885,35.658870055762236],[139.7112033084329,35.65867006066122],[139.70966330161252,35.65852006433329],[139.70779329355764,35.65837006873886],[139.70619328690407,35.65827007244002],[139.7054432838396,35.65823007416009],[139.70462328051235,35.65819007603562],[139.70408327830137,35.65816007727557]]]},"properties":{"任意ID":170,"区分":"第２次緊急輸送道路","枝ID":1,"行政区域":13113,"資料名称":"東京都緊急輸送道路ネットワーク計画図","資料年月":"2019","路線名称":"霞ヶ関渋谷線","道路種別":"一般都道府県道"}},{"type":"Feature","geometry":{"type":"MultiLineString","coordinates":[[[139.67283081845017,35.668470143108905],[139.67375570984768,35.66847157767609],[139.6749319791295,35.66844751758066],[139.6759672330419,35.66839596348228],[139.67709535037284,35.668361593025054],[139.67819939179526,35.668292854870685],[139.678777207969,35.66827223283133],[139.67956826564773,35.668217242525145],[139.68086835214183,35.6681863084213],[139.68182450008078,35.66811413383499],[139.6832002526529,35.66803164790758],[139.68394659851538,35.668000715128244],[139.68466198986403,35.66795947209454],[139.68597583363737,35.66789073340851],[139.68666371010693,35.66787698464532],[139.6875579493494,35.66783917796306],[139.6879335914757,35.66781555986785],[139.68797359170298,35.667824131191594],[139.688113592499,35.66785413082533],[139.68916069998022,35.66772919761058],[139.69069328291675,35.667490091334514],[139.6913632869789,35.66767008951882],[139.6917932895518,35.667780088367465],[139.69207329114977,35.66784008764091],[139.6930132969195,35.668100085099525],[139.69339329881154,35.668140084195784],[139.69393330131788,35.66817008296232],[139.69434330306547,35.66817008206755],[139.6950233061698,35.66820008052974],[139.6952833073468,35.66821007994474],[139.69582330971798,35.66822007874919],[139.69649331271273,35.66824007725285],[139.6976933181768,35.66829007454999],[139.6987433228644,35.6683200722112],[139.69985332787985,35.66836006972659],[139.70004332889027,35.668390069261136],[139.70057333171007,35.668490067916764],[139.70092333395007,35.66861006693881],[139.70118333576,35.66872006617791],[139.70139333751,35.66885006549444],[139.70161333930014,35.66898006478897],[139.70191334148,35.669120063888954],[139.70201334202,35.66914006363339],[139.70210334252,35.6691600634],[139.70253334529014,35.66931006219454],[139.70275334694009,35.66942006152226],[139.70302334858013,35.669500060789005],[139.70313334888,35.66948006057777],[139.7033733492102,35.66939006019459],[139.70409334985015,35.669070059127876],[139.70514335076018,35.66860005757786],[139.70545335095017,35.668450057138955],[139.70573335108998,35.668310056750045],[139.70654335167,35.66793005558333],[139.70691335188997,35.667750055061106],[139.70766335237022,35.667390053994495],[139.7083933529101,35.66705005293892],[139.70946335373844,35.66655005139455],[139.7105165339573,35.66604761571433]]]},"properties":{"任意ID":171,"区分":"第２次緊急輸送道路","枝ID":2,"行政区域":13113,"資料名称":"東京都緊急輸送道路ネットワーク計画図","資料年月":"2019","路線名称":"赤坂杉並線","道路種別":"一般都道府県道"}},{"type":"Feature","geometry":{"type":"MultiLineString","coordinates":[[[139.71123325051212,35.648920073743284],[139.7114432505199,35.64879007344763],[139.71174325106858,35.648700072893064],[139.712103251827,35.64861007220151],[139.71258325310453,35.64854007119868],[139.7133732551713,35.648440069433946],[139.71405325709804,35.64838006788244],[139.71458325875108,35.648360066637736],[139.71510326059786,35.648380065361266],[139.71544326201456,35.64843006447421],[139.7162332653278,35.64855006240418],[139.71667326719137,35.648620061244515],[139.71735327008128,35.648730059446564],[139.71743327040463,35.648740059239],[139.71811327323792,35.648840057451366],[139.71876327591463,35.648930055747485],[139.7189032764378,35.64894005539429],[139.71910327687783,35.64890005497142],[139.71928327713783,35.6488400546275],[139.71986327737113,35.648540053686645],[139.7202632777412,35.648370052986195],[139.72057327815128,35.648260052412354],[139.72122327935438,35.64809005111965],[139.72184328051446,35.64793004988894],[139.72264328199105,35.6477200483144],[139.7228532822378,35.64764004794256],[139.72305328245113,35.64756004759539],[139.72306643409254,35.64755520223644]]]},"properties":{"任意ID":173,"区分":"第２次緊急輸送道路","枝ID":1,"行政区域":13113,"資料名称":"東京都緊急輸送道路ネットワーク計画図","資料年月":"2019","路線名称":"古川橋二子多摩川線","道路種別":"一般都道府県道"}},{"type":"Feature","geometry":{"type":"MultiLineString","coordinates":[[[139.70239320676058,35.64659009737716],[139.7025632073496,35.64659009698386],[139.70279320803832,35.64657009648374],[139.70329320944495,35.64651009542166],[139.7038332109886,35.646450094265276],[139.70409321177976,35.64643009369411],[139.70461321330606,35.64638009256606],[139.70529321522042,35.64630009111136],[139.70564321615598,35.64625009037502],[139.70592321701372,35.64623008975485],[139.70602321724937,35.646210089552824],[139.70621321785075,35.64620008912635],[139.7063132181413,35.64619008890901],[139.7063732182935,35.64618008878455],[139.70671321941245,35.64617008800923],[139.7068932200342,35.64617008759069],[139.70738322205807,35.64623008636357],[139.7075232226524,35.646250086009104],[139.70763322314326,35.64627008572438],[139.7079032247418,35.64639008492287],[139.70820322666782,35.64655008399552],[139.70828322722264,35.64660008373818],[139.70879323143947,35.647040081928424],[139.7090332342807,35.647400080862724],[139.70922323639377,35.647660080058074],[139.70945323848173,35.64789007920723],[139.70963323972637,35.64800007864204],[139.709933241729,35.64817007772103],[139.71000324219824,35.64821007750601]]]},"properties":{"任意ID":173,"区分":"第２次緊急輸送道路","枝ID":2,"行政区域":13113,"資料名称":"東京都緊急輸送道路ネットワーク計画図","資料年月":"2019","路線名称":"古川橋二子多摩川線","道路種別":"一般都道府県道"}},{"type":"Feature","geometry":{"type":"MultiLineString","coordinates":[[[139.72179326232788,35.64475005503624],[139.7223432731713,35.64634005123156],[139.72249327605107,35.646760050207604],[139.72257327767772,35.64700004963453],[139.72275328048795,35.64739004858234],[139.7228532822378,35.64764004794256]]]},"properties":{"任意ID":174,"区分":"第２次緊急輸送道路","枝ID":1,"行政区域":13113,"資料名称":"東京都緊急輸送道路ネットワーク計画図","資料年月":"2019","路線名称":"北品川四谷線","道路種別":"一般都道府県道"}},{"type":"Feature","geometry":{"type":"MultiLineString","coordinates":[[[139.71397385002368,35.68125350790781],[139.7139134795267,35.681150017716845],[139.71383347746462,35.68093001822251],[139.71378347551558,35.68071001867378],[139.7136836225676,35.68037974655692],[139.71366466235168,35.680208949154576],[139.71365308686018,35.68001096039194],[139.71362082618225,35.679700857630735],[139.71354082340008,35.6793908582888],[139.71350082244896,35.679290858528134],[139.71327210483855,35.678784763659905],[139.71311210167391,35.678464764491935],[139.7129720992251,35.67822476515596],[139.71277344858004,35.67782002533585],[139.71269344451787,35.677350026270915],[139.71265344148674,35.676990026946896],[139.71266343896446,35.67667002745935],[139.7127134345934,35.67610002830838],[139.712733432429,35.67582002873388],[139.7127281023793,35.67564951204264],[139.71272342983104,35.675500029285445],[139.71258808270898,35.674140453875],[139.71261340825845,35.67255003441181],[139.71265685555522,35.67203714603721],[139.7129434020511,35.67149003548445],[139.71316340075623,35.67119003551858],[139.71336339994673,35.67097003546007],[139.71355339937895,35.6707900353544],[139.71378339860428,35.67056003524408],[139.7140242228754,35.67037189073081]],[[139.7142480257197,35.670211078910995],[139.7142933977924,35.67018003477881],[139.71467339720266,35.66990003442049],[139.71507019644017,35.669655227587214]],[[139.72226790936728,35.6508224696946],[139.72227329823795,35.65076004454903],[139.72228329803124,35.650720044577895],[139.72228329773122,35.65067004464447],[139.7223232958246,35.65033004500003],[139.72234329499122,35.65018004515122],[139.72240329348801,35.649890045420136],[139.72257329008778,35.64919004612642],[139.7226832881878,35.64879004650186],[139.72274598244087,35.648565663477214]],[[139.72291345473363,35.64792872902609],[139.7229372019175,35.64782153909175],[139.7228532822378,35.64764004794256]]]},"properties":{"任意ID":174,"区分":"第３次緊急輸送道路","枝ID":2,"行政区域":13113,"資料名称":"東京都緊急輸送道路ネットワーク計画図","資料年月":"2019","路線名称":"北品川四谷線","道路種別":"一般都道府県道"}},{"type":"Feature","geometry":{"type":"MultiLineString","coordinates":[[[139.66971290155016,35.68079894532671],[139.6698232690601,35.68023011084762],[139.66997326494675,35.679560112155],[139.67008326172004,35.679040113181145],[139.67017325956,35.678680113857126],[139.67021325860014,35.67852011415704],[139.67027325723336,35.678290114581785],[139.67035325531333,35.677970115179505],[139.67037325490662,35.67790011530428],[139.67042325348666,35.67767011575063],[139.6704632527468,35.67754011597469],[139.67050325200682,35.677410116198644],[139.67056324932025,35.67700011706103],[139.67060324865338,35.676880117259486],[139.67074324507337,35.676290118367945],[139.67088323922007,35.675390120229395]]]},"properties":{"任意ID":175,"区分":"第２次緊急輸送道路","枝ID":3,"行政区域":13113,"資料名称":"東京都緊急輸送道路ネットワーク計画図","資料年月":"2019","路線名称":"鮫洲大山線","道路種別":"一般都道府県道"}},{"type":"Feature","geometry":{"type":"MultiLineString","coordinates":[[[139.67088323922007,35.675390120229395],[139.67089600321026,35.67532789400536],[139.67096323678675,35.67500012098668],[139.67120323073334,35.67390012285534],[139.67129322874666,35.67353012346456],[139.6715632236535,35.67255012501187],[139.6717032214666,35.67211012566685],[139.67176322085345,35.671970125839266],[139.67176499628385,35.67196450356273]]]},"properties":{"任意ID":175,"区分":"第２次緊急輸送道路","枝ID":5,"行政区域":13113,"資料名称":"東京都緊急輸送道路ネットワーク計画図","資料年月":"2019","路線名称":"鮫洲大山線","道路種別":"一般都道府県道"}},{"type":"Feature","geometry":{"type":"MultiLineString","coordinates":[[[139.69239919220524,35.65483211277295],[139.69254321236883,35.65480010810296],[139.69279604437452,35.65464537824738],[139.6934332121034,35.654090107112324]]]},"properties":{"任意ID":177,"区分":"第３次緊急輸送道路","枝ID":1,"行政区域":13113,"資料名称":"東京都緊急輸送道路ネットワーク計画図","資料年月":"2019","路線名称":"渋谷経堂線","道路種別":"一般都道府県道"}},{"type":"Feature","geometry":{"type":"MultiLineString","coordinates":[[[139.68345016873374,35.68933195411221],[139.68315340622235,35.689200061677695],[139.68242340025347,35.68890006383782],[139.68229339921777,35.688850064214535]]]},"properties":{"任意ID":180,"区分":"第３次緊急輸送道路","枝ID":1,"行政区域":13113,"資料名称":"東京都緊急輸送道路ネットワーク計画図","資料年月":"2019","路線名称":"淀橋渋谷本町線","道路種別":"一般都道府県道"}},{"type":"Feature","geometry":{"type":"MultiLineString","coordinates":[[[139.72228329803124,35.650720044577895],[139.72230649304538,35.65072847901402]]]},"properties":{"任意ID":243,"区分":"第３次緊急輸送道路","枝ID":2,"行政区域":13113,"資料名称":"東京都緊急輸送道路ネットワーク計画図","資料年月":"2019","路線名称":"港1105","道路種別":"市町村道（認定道路）"}},{"type":"Feature","geometry":{"type":"MultiLineString","coordinates":[[[139.69549264201748,35.663602259796335],[139.69573677000074,35.66376314233315],[139.69631458823392,35.66412743943977],[139.6966344519277,35.66433364536533],[139.69680986081266,35.664409254075565],[139.69697839074058,35.664453931805554],[139.6972191477031,35.6645054829296],[139.697473662035,35.66453297658211],[139.69822000828094,35.664639515019076],[139.69877030977239,35.66473574355973],[139.69957856804558,35.66534405134058],[139.69997753862287,35.66572896950851],[139.70037994846962,35.66611045089138],[139.7007066917456,35.6664575646696],[139.70085114632775,35.66655723088962],[139.7010540701914,35.66662940276126],[139.70141176599827,35.66667751684821],[139.701779626266,35.66670193031024]]]},"properties":{"任意ID":300,"区分":"第２次緊急輸送道路","枝ID":1,"行政区域":13113,"資料名称":"東京都緊急輸送道路ネットワーク計画図","資料年月":"2019","路線名称":"渋853","道路種別":"市町村道（認定道路）"}},{"type":"Feature","geometry":{"type":"MultiLineString","coordinates":[[[139.69549264201748,35.663602259796335],[139.69489328073564,35.6644000873556],[139.6948632809257,35.664450087338935],[139.69434328341697,35.66519008726124],[139.6940732848102,35.665590087194516],[139.69380328620332,35.665990087127796],[139.6936164069989,35.66614483369409],[139.69338940906027,35.66633042017111],[139.69308674431522,35.666447271270954],[139.6928532859289,35.66658008825556],[139.69276328612045,35.6666700883049],[139.69260328646533,35.666820088380916],[139.69250328672263,35.66692008841602],[139.69234328733728,35.66711008841503],[139.6917932895518,35.667780088367465]]]},"properties":{"任意ID":301,"区分":"第２次緊急輸送道路","枝ID":1,"行政区域":13113,"資料名称":"東京都緊急輸送道路ネットワーク計画図","資料年月":"2019","路線名称":"渋862","道路種別":"市町村道（認定道路）"}},{"type":"Feature","geometry":{"type":"MultiLineString","coordinates":[[[139.70130330049165,35.66331007492789],[139.70212330433708,35.6634100729388]]]},"properties":{"任意ID":302,"区分":"第２次緊急輸送道路","枝ID":1,"行政区域":13113,"資料名称":"東京都緊急輸送道路ネットワーク計画図","資料年月":"2019","路線名称":"渋865","道路種別":"市町村道（認定道路）"}},{"type":"Feature","geometry":{"type":"MultiLineString","coordinates":[[[139.71735327008128,35.648730059446564],[139.71723327296775,35.64931005888934],[139.717123275208,35.649770058486126],[139.71736327651786,35.64986005776939],[139.71743327686454,35.64988005756925],[139.7174632780044,35.65006005724007],[139.71745327959115,35.650330056904465],[139.71730328311116,35.65100005637777],[139.71727328487123,35.65131005603786],[139.71723328629787,35.65157005578902],[139.71726328729778,35.65172005551557],[139.717263293658,35.652780054102266],[139.71727330077135,35.653960052504544],[139.7172733029314,35.6543200520245],[139.71728330602468,35.65483005132012],[139.7172933068979,35.65497005110893]]]},"properties":{"任意ID":303,"区分":"第２次緊急輸送道路","枝ID":1,"行政区域":13113,"資料名称":"東京都緊急輸送道路ネットワーク計画図","資料年月":"2019","路線名称":"渋877","道路種別":"市町村道（認定道路）"}},{"type":"Feature","geometry":{"type":"MultiLineString","coordinates":[[[139.71123325051212,35.648920073743284],[139.71134325146375,35.64902007335934],[139.71139325192212,35.649070073178734],[139.71167325561998,35.64955007189877],[139.71198325926218,35.650000070600015],[139.7121432611491,35.65022006995122],[139.7124732653839,35.65073006853788],[139.7128732705645,35.65137006671341],[139.71323327536447,35.65197006503337],[139.7133532775647,35.65227006434003],[139.7133932788978,35.65247006397556],[139.71347328186448,35.652920063180034],[139.71350328298456,35.65309006288004],[139.71367328931126,35.654050061184535],[139.7137032906112,35.65425006084456],[139.71370329235128,35.65454006045786],[139.71371329388455,35.65479006010003],[139.71371329574458,35.65510005968673],[139.71373329737105,35.65536005929113],[139.71379329919114,35.65563005878448],[139.7138633007445,35.65585005832003],[139.71394330281112,35.656150057724574],[139.71402330415788,35.65633005728898],[139.7141933067645,35.65667005642007],[139.7144033097445,35.65705005540008],[139.7145493771277,35.65728502964276]]]},"properties":{"任意ID":304,"区分":"第２次緊急輸送道路","枝ID":1,"行政区域":13113,"資料名称":"東京都緊急輸送道路ネットワーク計画図","資料年月":"2019","路線名称":"渋887","道路種別":"市町村道（認定道路）"}},{"type":"Feature","geometry":{"type":"MultiLineString","coordinates":[[[139.70201334202,35.66914006363339],[139.70190333647008,35.66841006509458],[139.70187265029415,35.66773604322373],[139.701779626266,35.66670193031024],[139.7015133139962,35.66530007114443],[139.70146331124897,35.664900071922204],[139.70136330505738,35.663990073661125],[139.7013133016768,35.66349007460565],[139.70130330049165,35.66331007492789]]]},"properties":{"任意ID":305,"区分":"第２次緊急輸送道路","枝ID":1,"行政区域":13113,"資料名称":"東京都緊急輸送道路ネットワーク計画図","資料年月":"2019","路線名称":"渋957","道路種別":"市町村道（認定道路）"}},{"type":"Feature","geometry":{"type":"MultiLineString","coordinates":[[[139.67120323073334,35.67390012285534],[139.6724132973975,35.67421279125125],[139.67507473647674,35.67483638862035]]]},"properties":{"任意ID":527,"区分":"第３次緊急輸送道路","枝ID":1,"行政区域":13113,"資料名称":"東京都緊急輸送道路ネットワーク計画図","資料年月":"2019","路線名称":"渋850","道路種別":"市町村道（認定道路）"}},{"type":"Feature","geometry":{"type":"MultiLineString","coordinates":[[[139.67507473647674,35.67483638862035],[139.67539556007182,35.67518500292914],[139.67554144793985,35.67531397793124],[139.67576625755623,35.67544067117609]]]},"properties":{"任意ID":528,"区分":"第３次緊急輸送道路","枝ID":1,"行政区域":13113,"資料名称":"東京都緊急輸送道路ネットワーク計画図","資料年月":"2019","路線名称":"渋851","道路種別":"市町村道（認定道路）"}},{"type":"Feature","geometry":{"type":"MultiLineString","coordinates":[[[139.67576625755623,35.67544067117609],[139.67620022578808,35.67473292776731],[139.6768564018024,35.67398254375905],[139.67710224561586,35.67381353620016],[139.6772543089802,35.67377319037183],[139.6775320005164,35.67375924070177],[139.67779248383408,35.67357594135876]]]},"properties":{"任意ID":526,"区分":"第３次緊急輸送道路","枝ID":1,"行政区域":13113,"資料名称":"東京都緊急輸送道路ネットワーク計画図","資料年月":"2019","路線名称":"渋230","道路種別":"市町村道（認定道路）"}},{"type":"Feature","geometry":{"type":"MultiLineString","coordinates":[[[139.7127281023793,35.67564951204264],[139.71275807950153,35.67565245873381]]]},"properties":{"任意ID":661,"区分":"第２次緊急輸送道路","枝ID":1,"行政区域":13113,"資料名称":"東京都緊急輸送道路ネットワーク計画図","資料年月":"2019","路線名称":"新宿43-690","道路種別":"市町村道（認定道路）"}},{"type":"Feature","geometry":{"type":"MultiLineString","coordinates":[[[139.71344956912316,35.658843900020834],[139.71320331669813,35.65882005582034],[139.7112033081013,35.65862006074451],[139.7096733013209,35.658470064394635],[139.7078032932775,35.65832006879572],[139.70619328661246,35.65822007250682],[139.70544328354902,35.65818007422672],[139.70462328022302,35.658140076102256],[139.7044332793905,35.658120076551256],[139.70408327795474,35.658100077355755],[139.7038652677503,35.658086235998155],[139.70345327534812,35.65806007880906],[139.70328327464972,35.65805007920005],[139.7030732735708,35.65800007973348],[139.70284327235947,35.657940080324636],[139.702763271943,35.65792008052904],[139.70156326536778,35.65756008367572],[139.70026325804395,35.65713008713783],[139.69840324680115,35.65651009217561],[139.69759324190795,35.656250094378436],[139.696893237989,35.656080096213714],[139.69639323531112,35.655980097497775],[139.69583323260701,35.65592009886399],[139.69541323038004,35.65584009994092],[139.69516322892798,35.655770100615484],[139.6949032270934,35.65564010140196],[139.69467322504568,35.655450102209954],[139.69447322289807,35.65522010301032],[139.69384321627126,35.654520105510926],[139.69369321473118,35.65436010609983],[139.6934332121034,35.65409010711244],[139.69323332771017,35.65394825552355]]]},"properties":{"任意ID":7,"区分":"第１次緊急輸送道路","枝ID":1,"行政区域":13113,"資料名称":"東京都緊急輸送道路ネットワーク計画図","資料年月":"2019","路線名称":"都道首都高速3号線","道路種別":"都市高速道路"}},{"type":"Feature","geometry":{"type":"MultiLineString","coordinates":[[[139.69516322892798,35.655770100615484],[139.69544322994022,35.65574010001791]]]},"properties":{"任意ID":7,"区分":"第１次緊急輸送道路","枝ID":4,"行政区域":13113,"資料名称":"東京都緊急輸送道路ネットワーク計画図","資料年月":"2019","路線名称":"都道首都高速3号線","道路種別":"都市高速道路"}},{"type":"Feature","geometry":{"type":"MultiLineString","coordinates":[[[139.66147689743983,35.67269326044355],[139.66179317280682,35.6727801477266],[139.66405318946704,35.673430141082804],[139.66617320484,35.67404013470963],[139.66837322083995,35.67468012800799],[139.67037323540035,35.67524012183935],[139.6708832392202,35.67539012022945],[139.67097323992016,35.6754201199372],[139.67148324374034,35.675570118332246],[139.6725032513068,35.67586011515829],[139.67461326732678,35.67651010852552],[139.67511327104455,35.67666010699833],[139.67673328263106,35.6771601023263],[139.67718328571118,35.677280101079305],[139.67893329793344,35.67778009618257],[139.6794833017957,35.67794009464683],[139.68009330624454,35.67814009289964],[139.68099331321127,35.678490090214325],[139.68189332061786,35.67890008741671],[139.68283332873364,35.67938008440575],[139.6848833452092,35.68026007826825],[139.6853833495603,35.68052007669246],[139.68575335305593,35.680750075454],[139.6874133689446,35.68181006989715],[139.68753337011003,35.68189006949342],[139.68824737691466,35.68236606711338],[139.68828337725847,35.68239006699338],[139.68927096690763,35.68307129212157]],[[139.6907543410779,35.68405097576012],[139.6907755368543,35.684021537016235],[139.69091340044247,35.683830058733065],[139.69110339916926,35.683560058959586],[139.69283338895798,35.68113006041341],[139.69342338560875,35.68032006085332],[139.69364338429364,35.680010061033386],[139.69385338405493,35.67985006093346],[139.6944233853086,35.67967006015351],[139.69490338765218,35.67969005915347],[139.69555339175463,35.67984005755346],[139.69616339613322,35.68005005591351],[139.6964533986726,35.680210055013504],[139.69753340863895,35.68087005153353],[139.6979734118055,35.68102005035348],[139.6982534133233,35.68105004973353],[139.6985934143553,35.68098004919341],[139.6990034148679,35.680800048733374],[139.70009341585262,35.680280047586166],[139.70068341622084,35.680010046893244],[139.70088341674034,35.67997004655456],[139.70118341798002,35.67997004592769],[139.7024834248988,35.680170042824216],[139.70357343072874,35.68034004022849],[139.70456343615342,35.68051003785013],[139.70464343656306,35.68052003766536],[139.70499343879453,35.68062003675237],[139.70585344564904,35.68104003419563],[139.70621344840004,35.68120003316011],[139.70671345095354,35.68126003202252],[139.70792345646817,35.68132002942815],[139.70904346129498,35.68134002709297],[139.7096734639216,35.68134002579944],[139.71007346479587,35.68124002515134],[139.71119346770968,35.6810200232232],[139.7115596460999,35.68097536678499],[139.71242347162763,35.68087002093756],[139.71378347551558,35.68071001867389],[139.71454992871307,35.68059586513261]]]},"properties":{"任意ID":8,"区分":"第１次緊急輸送道路","枝ID":1,"行政区域":13113,"資料名称":"東京都緊急輸送道路ネットワーク計画図","資料年月":"2019","路線名称":"都道首都高速4号線","道路種別":"都市高速道路"}},{"type":"Feature","geometry":{"type":"MultiLineString","coordinates":[[[139.69490338765218,35.67969005915347],[139.6947033861362,35.679610059713525],[139.6945933852578,35.679560060033396],[139.69452338456222,35.679510060273515],[139.6943933828412,35.6793600608334],[139.6942933811075,35.67919006137339],[139.6940233733461,35.67832006365347],[139.69392337064153,35.67802006445345],[139.69384336840403,35.677770065113464],[139.6936833650567,35.677420066133436],[139.69346336144247,35.67707006727346],[139.693323359165,35.67685006799337],[139.69296335388253,35.67636006969349],[139.69285335226823,35.676210070213415],[139.69278335120748,35.67611007055348],[139.69271335007227,35.67600007091352]]]},"properties":{"任意ID":8,"区分":"第１次緊急輸送道路","枝ID":2,"行政区域":13113,"資料名称":"東京都緊急輸送道路ネットワーク計画図","資料年月":"2019","路線名称":"都道首都高速4号線","道路種別":"都市高速道路"}},{"type":"Feature","geometry":{"type":"MultiLineString","coordinates":[[[139.71368362256771,35.68037974655704],[139.71323072682867,35.68049803656254],[139.71265214437926,35.68066448143236],[139.71225765622125,35.680773984713596],[139.7115596460999,35.68097536678499]]]},"properties":{"任意ID":8,"区分":"第１次緊急輸送道路","枝ID":3,"行政区域":13113,"資料名称":"東京都緊急輸送道路ネットワーク計画図","資料年月":"2019","路線名称":"都道首都高速4号線","道路種別":"都市高速道路"}},{"type":"Feature","geometry":{"type":"MultiLineString","coordinates":[[[139.68286332844013,35.67932008447002],[139.68283332873364,35.67938008440575]]]},"properties":{"任意ID":8,"区分":"第１次緊急輸送道路","枝ID":5,"行政区域":13113,"資料名称":"東京都緊急輸送道路ネットワーク計画図","資料年月":"2019","路線名称":"都道首都高速4号線","道路種別":"都市高速道路"}},{"type":"Feature","geometry":{"type":"MultiLineString","coordinates":[[[139.6817832995834,35.690673357361305],[139.68177340651596,35.690080062384595],[139.68178340496456,35.68988006283115],[139.68182340371993,35.6897000631713],[139.6818834026534,35.689530063447876],[139.68196340136478,35.68932006377793],[139.6821833998,35.688990064107884],[139.68229339921777,35.68885006421459],[139.6824333983824,35.68866006437793],[139.68341339565347,35.6877200646112],[139.68417339360906,35.687000064771155],[139.68478576127666,35.68638769540267]],[[139.68827385965017,35.68239958462733],[139.68828337725847,35.68239006699338],[139.68833642019422,35.68233906404231],[139.68854337662503,35.682140066973375],[139.68869337621538,35.68199006697341],[139.6888433752149,35.68176006713344],[139.6889033740921,35.68157006739341],[139.68893337275642,35.68137006773338],[139.68894337036988,35.68104006837342],[139.6889333678174,35.68070006907345],[139.68891336521926,35.680360069793494],[139.6888133597505,35.679680071353346],[139.68866335317352,35.678880073253424],[139.68846334806915,35.678310074793444],[139.68832334427202,35.677880075933444],[139.68812333932533,35.677330077433396],[139.68794333542928,35.6769100786334],[139.68787333349917,35.67669007921347],[139.68782333158583,35.676460079773506],[139.68781332486026,35.675550081613494],[139.68782331786292,35.674550083589565],[139.68782330691556,35.67291008685555],[139.68785329569823,35.67121009017808],[139.68795328210706,35.669110094142695],[139.6879735917032,35.66782413119165],[139.6879632714638,35.667510097301545],[139.6880132660001,35.66666009887791],[139.6880032640579,35.66636009940004],[139.68791325943448,35.66569010071686],[139.6878632565,35.66526010154456],[139.68769324799234,35.66403010397232],[139.68761324233458,35.6631901055502],[139.68758323853456,35.662610106583486],[139.68756323585364,35.662200107311264],[139.6876032343123,35.661930107672276],[139.6877232331725,35.66167010783886],[139.68789323224348,35.66141010789448],[139.68854322985817,35.660600107800065],[139.68924322787348,35.65982010754459],[139.6899332257201,35.659020107344475],[139.690683223669,35.65818010706482],[139.6908832224733,35.65782010718709],[139.69101322103904,35.657470107447125],[139.69102321955143,35.65720010784935],[139.69095321761222,35.65691010846359],[139.6909332173011,35.656870108571866],[139.69087337959266,35.65668205177727]]]},"properties":{"任意ID":476,"区分":"第１次緊急輸送道路","枝ID":1,"行政区域":13113,"資料名称":"東京都緊急輸送道路ネットワーク計画図","資料年月":"2019","路線名称":"中央環状新宿線","道路種別":"都市高速道路"}},{"type":"Feature","geometry":{"type":"MultiLineString","coordinates":[[[139.72298273540105,35.645278491757885],[139.72292326892784,35.64525005162659],[139.72281326822122,35.64519005197809],[139.7225232662912,35.645020052921836],[139.72220326352453,35.64472005413927],[139.72219326349136,35.64472005416218],[139.72195326116116,35.644450055143125],[139.72189817759724,35.644388616599954]]]},"properties":{"任意ID":480,"区分":"第１次緊急輸送道路","枝ID":1,"行政区域":13113,"資料名称":"東京都緊急輸送道路ネットワーク計画図","資料年月":"2019","路線名称":"都道首都高速2号線","道路種別":"都市高速道路"}}],"name":"13113_shibuya-ku_pref_2023_emergency_route","type":"FeatureCollection"}