{"features":[{"type":"Feature","geometry":{"type":"MultiLineString","coordinates":[[[139.68436485931932,35.690554572046764],[139.68434808997034,35.69054103075283],[139.68433471447113,35.69054434926584],[139.6843287429787,35.690547045983195],[139.68430613560497,35.69052385280421],[139.68420986369767,35.690423861852295],[139.68407101435952,35.69022619972345],[139.6840327661722,35.690176937519915],[139.68401691010428,35.69014771348241],[139.68400502528493,35.690121919572924],[139.68400286892006,35.690093253347655],[139.68400953625306,35.690072890666855],[139.6839875715432,35.69006069493173],[139.68386961645953,35.69003503978575],[139.6838295441445,35.69001606126759],[139.68378947201677,35.68999699259937],[139.68376806216347,35.68998353559603],[139.6837415653478,35.68991328598733],[139.6837374177534,35.68988596933641],[139.6837380562826,35.68978069016658],[139.68370672167688,35.68975694520572],[139.68369186273623,35.68972637030859],[139.68362535446133,35.68966391284528],[139.68355689843813,35.689579549640605],[139.68353650301947,35.6895554576963],[139.68356363071092,35.68952448433441],[139.6834752990127,35.689374566782504],[139.68346505595918,35.689357247734826],[139.68343697061957,35.68930953031537],[139.6834569069147,35.68928368582869],[139.68340083567864,35.68913516042979],[139.68330916110557,35.688941702428565],[139.683244009457,35.688804342616834],[139.6831422784269,35.68855345468908],[139.6831318294448,35.68852820330031],[139.68330309552337,35.688522648092295],[139.68332236450033,35.68832202719688],[139.68336895292416,35.68822383593427],[139.68340964293554,35.68814835182544],[139.68347052168818,35.68802998763202],[139.68351928746742,35.687948925043216],[139.68365179538804,35.687812261924485],[139.6840044832051,35.68744863661639],[139.68407538788225,35.68746332673721],[139.68469022763733,35.687590639778676],[139.6857021356048,35.68778982574954],[139.68571384399417,35.68779155270962],[139.6857228028472,35.687786425886245],[139.6858215820958,35.687363984744685],[139.68581941585887,35.68734036619776],[139.68580763405535,35.68731853860802],[139.68578004352366,35.687301739314094],[139.6857130197836,35.68727939331086],[139.68559497220593,35.687245897815586],[139.68554803946745,35.68723304075845],[139.68553072117643,35.68721787648257],[139.68552445775623,35.68719930057147],[139.6855223070747,35.68716729929702],[139.68553784826076,35.687067716994335],[139.68559352901647,35.68677024309723],[139.68561381707397,35.68661279864579],[139.68562530750268,35.686432989415124],[139.68541884361082,35.686415700031326],[139.68524429829185,35.686404669013456],[139.68471533430522,35.68638508841575],[139.68471424902188,35.68637454104606],[139.68471216018517,35.68636894997291],[139.68471512978005,35.68619751304696],[139.6847171895424,35.68615920736],[139.6847177606859,35.68614911271976],[139.68471820797146,35.686146228887544],[139.68472463143507,35.686078363646715],[139.6847422764319,35.685976710875174],[139.6847704320338,35.68586713901245],[139.6848168925063,35.68571702806563],[139.6848712942344,35.68557413785162],[139.68497729115776,35.68537173062781],[139.68508636121484,35.68518005339358],[139.68524031038487,35.68491578082113],[139.68543727757844,35.68456917564158],[139.6854572602809,35.6845171911175],[139.68550863248268,35.68439845358998],[139.6855538019468,35.68428818130629],[139.68562853624502,35.68414189046175],[139.68563763192222,35.68412225174508],[139.68566791337787,35.684057119807264],[139.68567401442021,35.68404378700763],[139.68569985897398,35.68398820414584],[139.68579444131151,35.68380254763759],[139.68588710805784,35.683636989265096],[139.68592348030754,35.683563842518886],[139.6859686321518,35.68346258374684],[139.6859926985198,35.683412497000106],[139.68618479904833,35.68312528486883],[139.68629228699587,35.68300986048358],[139.6863803709673,35.68293245015733],[139.68643129384733,35.68287671746079],[139.68644901252958,35.68285384426517],[139.68648820599827,35.68280819258424],[139.68657623536552,35.68270004530575],[139.68672881496028,35.68251481924984],[139.68710419626527,35.68210587317995],[139.68740600109598,35.68181509660155],[139.68837095819336,35.682464978850334],[139.68955772747694,35.683264475516445],[139.6900720599443,35.68360914178777],[139.69062149496494,35.68397340720204],[139.69075283107668,35.68405017930636],[139.6907677320794,35.684058038875875],[139.69096078297343,35.68415994191679],[139.69119433739812,35.684286499887115],[139.69136631119233,35.68437494696928],[139.69145063693773,35.68442146695492],[139.69154739857345,35.68449549332632],[139.69185149210597,35.68471912052753],[139.69188611712914,35.6847567483592],[139.69194909380013,35.68481838593187],[139.69199520223037,35.68485990310944],[139.6926497373526,35.6853423620659],[139.69338340185627,35.685879442345744],[139.6935068595497,35.685789088221526],[139.6935679158009,35.68574940868923],[139.69367016338856,35.68584741616008],[139.69433736301,35.686300405767405],[139.69480659247975,35.68661885986563],[139.6953894688025,35.686900035533036],[139.69543616537018,35.68692253314574],[139.69567341958435,35.68696228468009],[139.6957608987738,35.686976986872686],[139.6957233250147,35.68717506508148],[139.69637294561215,35.68745423909111],[139.69674575335807,35.687632412813095],[139.69727555528038,35.687880889494636],[139.69751402587633,35.68798743029136],[139.69764893869055,35.68804770380003],[139.6981086906539,35.68823462440138],[139.699303365102,35.68871080206892],[139.6994156830976,35.68840905827106],[139.69943901750653,35.68833003407972],[139.6995246008882,35.688356539374524],[139.69959089876946,35.68822086672624],[139.69991809474314,35.68832741115712],[139.69990148865816,35.688347222892354],[139.69995633578043,35.68838631298945],[139.70010454512885,35.68849166697324],[139.7002026663517,35.68855315881427],[139.70029162654419,35.68860905195762],[139.70045519915826,35.6887116282371],[139.7006226440403,35.688811324178026],[139.70074760147065,35.68888077720799],[139.70075113394947,35.68888267397515],[139.70088977974095,35.68895962330127],[139.7008996086993,35.68896233822385],[139.70091783116825,35.688967225665834],[139.70220525732566,35.689226246356235],[139.70227034334766,35.68901855147337],[139.70229319336755,35.688963863194346],[139.70229829600956,35.688951519980634],[139.70227417861878,35.68890290988928],[139.70222668903602,35.68889050941256],[139.70218025446727,35.68850359085264],[139.70218346614413,35.68843148475285],[139.70219880338945,35.68817398004906],[139.7025836666926,35.68815141371621],[139.70259609107742,35.68812087076503],[139.7027071300955,35.687850039457906],[139.70274379866336,35.687858011295845],[139.70303451778022,35.68790826220023],[139.70393544900568,35.688031099159424],[139.70417394161137,35.687992686487895],[139.7043218607215,35.68800681632918],[139.70433285917588,35.68803801551949],[139.7051344319873,35.68811305452298],[139.70513531573755,35.688113145601065],[139.70517128003402,35.68807812059724],[139.70521419421135,35.68798072816891],[139.70543587698413,35.688020984715],[139.70555938058826,35.68775683414305],[139.7055902611651,35.68772243457503],[139.70598588209677,35.6873943944266],[139.7059837879562,35.687252155994194],[139.70599020811582,35.687175095632035],[139.70603181016654,35.687068146983705],[139.70611696617294,35.686877236642275],[139.70675624559735,35.686170515041404],[139.7071339916649,35.684697170847436],[139.70729220856052,35.68469319028615],[139.70752388301506,35.68469757891134],[139.70781638136359,35.684382404491416],[139.70906573837883,35.6842217242223],[139.7092276427112,35.684190253115815],[139.7093028036946,35.684168607536705],[139.70935433738543,35.68413675209292],[139.70947110362306,35.68407350591818],[139.70957257761648,35.684039808870466],[139.7096814562661,35.68400449687488],[139.70970842757433,35.68399551086566],[139.70971539219698,35.68399272376769],[139.7097283303083,35.683985075400265],[139.70979988302122,35.683938818383865],[139.7098744390518,35.68387931425416],[139.7099645057311,35.68379161306741],[139.71005362572473,35.68367281355024],[139.71012273198448,35.683564719796934],[139.71014731949361,35.68352517477844],[139.71116721256536,35.68342255635249],[139.7112365759017,35.68336214473268],[139.7112991697818,35.68332146623254],[139.71134374668665,35.6832864480817],[139.71155850902437,35.68314857547899],[139.7115705685991,35.68313723040297],[139.7116584973432,35.683073321965004],[139.71167873431835,35.683060723222795],[139.71174686089185,35.68301401089278],[139.71177816468384,35.68298898439091],[139.7118140061894,35.68295864437254],[139.71186765060813,35.68291795654019],[139.7121653463059,35.68273014039882],[139.71268712675501,35.68237291025071],[139.71321836076794,35.68197061869365],[139.71321669416508,35.6819031944738],[139.71342837817173,35.68175062307689],[139.71357353096903,35.68168713074769],[139.71356624909706,35.681606721199174],[139.71362323136754,35.681549090116526],[139.71384988941594,35.68135543032993],[139.7139906999149,35.681239653653975],[139.71445207807048,35.68085107828094],[139.71460527849402,35.68072296432144],[139.7144981492975,35.68047696454067],[139.71435105432988,35.68013907542484],[139.71423461821738,35.6799122654003],[139.7141499901106,35.67969188648315],[139.71412445289604,35.67962930602364],[139.71411424118588,35.67958729200327],[139.7140705196818,35.67919812663683],[139.71404717560333,35.679072452322124],[139.71394039833012,35.67896364107955],[139.7138580152924,35.67886882520878],[139.71379166246703,35.67876645367602],[139.71349949706305,35.67822335726227],[139.71346383018505,35.67813877309761],[139.71346618711297,35.678040165384004],[139.71348234572434,35.67794652895228],[139.7134390880537,35.677840754985326],[139.71317318079844,35.67739800652407],[139.71301380769356,35.67715168273367],[139.7129556348321,35.67704760628081],[139.7129346284479,35.676985210347226],[139.71292263986095,35.67695004485731],[139.71290864820264,35.67685106023637],[139.71290376342495,35.676719995883104],[139.71292490878204,35.67661626912862],[139.71293435445978,35.676579232189894],[139.71293046171868,35.67652316296576],[139.7129008723547,35.676438404414576],[139.71270660384286,35.67625847638406],[139.71274193911074,35.6757546448486],[139.7127422775712,35.67574995805315],[139.71275933780535,35.67564469488705],[139.71274614701503,35.67545422176558],[139.71267651661935,35.67444966291258],[139.7127531838539,35.67444811724427],[139.71289532272314,35.67447052339661],[139.71305204075188,35.6744947466903],[139.71317640779978,35.67450821117151],[139.71337114792846,35.67451850071785],[139.71344659103605,35.67452299258223],[139.71349905745834,35.67452701084808],[139.7135472149559,35.674531475490554],[139.71356620793114,35.67453654206834],[139.71369443199205,35.674630412250465],[139.71371253547042,35.67463935382172],[139.71377305379872,35.67465167259133],[139.7139260597305,35.67472104980733],[139.7140069748245,35.6747602495757],[139.7140806057818,35.67479493521457],[139.7141388925327,35.67482230450506],[139.71416152611803,35.67483070966971],[139.71441776177397,35.67486557569542],[139.71470867733535,35.67490552303152],[139.71478897577336,35.67491389473855],[139.71484221833242,35.6749162005762],[139.7148864610045,35.674804113409735],[139.71489459205776,35.67475887252494],[139.71495931432588,35.67461760101241],[139.71508980967397,35.67437111379405],[139.71500076941226,35.6742234716839],[139.71519274472868,35.6738607677139],[139.71552599673268,35.67372949386851],[139.7155480770262,35.67373843905594],[139.71620420696317,35.67339132964329],[139.71629303564282,35.673230791456106],[139.71669320346243,35.672507467798155],[139.71657152455373,35.672242797022925],[139.715423688663,35.67268848886011],[139.71482796125184,35.67290297150077],[139.71460645977677,35.67246693970105],[139.71461012421875,35.67245405368716],[139.71453136034077,35.67223178767059],[139.71454663508774,35.672211161308795],[139.71440654223198,35.672003346783264],[139.71456307232808,35.6719277859845],[139.71415060625415,35.67125288128092],[139.71410116586975,35.67114674076781],[139.71411896769925,35.67091231134683],[139.7143971737775,35.6708722049643],[139.714016724653,35.67036183185344],[139.71508139186443,35.6696679236189],[139.71491178602406,35.66947558422466],[139.71459364360263,35.66933573839007],[139.71435918392814,35.669302516711916],[139.71393365665074,35.66947182405421],[139.71345937450437,35.66892872629035],[139.71300412705486,35.66836617597859],[139.7129354952028,35.66831680226695],[139.71185769322366,35.667107969848985],[139.71182047178505,35.66710603941085],[139.711315790456,35.66652432355762],[139.711279705016,35.666501932927865],[139.71113490031811,35.66635387069694],[139.71092067950633,35.66609369702635],[139.71081891669905,35.66597019551139],[139.71056346213797,35.66609405446417],[139.71012715896455,35.66566230165298],[139.70991266839272,35.66543718931837],[139.70978829155257,35.66529617709498],[139.7096390926248,35.665135759714225],[139.70874202392693,35.66417964928351],[139.70948964057195,35.66363761319418],[139.71027268931758,35.663104081532424],[139.71028114136857,35.6630665028785],[139.71032288571837,35.6629988523479],[139.71038384783836,35.66293176224872],[139.7112764983053,35.66193214518709],[139.7118610019937,35.661277527345774],[139.71194488573417,35.66117007798988],[139.71199701868503,35.66102365722124],[139.71208110175442,35.66093017926679],[139.71214239748832,35.66085957322777],[139.71224435106924,35.660780625264486],[139.71299143725048,35.660334382633074],[139.71316732593274,35.66022441032536],[139.71335602316472,35.6601164335432],[139.71392510826433,35.65978285967007],[139.71395241275218,35.659766842275644],[139.71399265088257,35.65974326614741],[139.71394502466256,35.659684629604186],[139.71371628907576,35.65938712933314],[139.7135892691662,35.65916878033906],[139.71343187692514,35.658802755817874],[139.7133928758637,35.658663995435795],[139.7133310360639,35.658509528364505],[139.71328042110014,35.65838238409888],[139.71322681872886,35.658258932466126],[139.71326749458882,35.658237700584344],[139.71337783574856,35.65823384449273],[139.7135223010618,35.65815845310647],[139.7135548675455,35.65802057517749],[139.71361138800492,35.657965106698455],[139.713964304128,35.65763942978774],[139.71402300370426,35.657603613240745],[139.71408877665021,35.65756446858222],[139.71426410565863,35.65745440392317],[139.7144208470492,35.657366224061846],[139.7147262908909,35.657173270509006],[139.71481315038488,35.65713928405307],[139.71507571801317,35.65703624461132],[139.7151918374321,35.657007334308446],[139.71532474172835,35.65698015295393],[139.7155705258347,35.65694884542158],[139.71627338408848,35.65687850231135],[139.71639820530882,35.65686510294968],[139.71653596599617,35.6568396375848],[139.71671482411196,35.65680564880371],[139.71786676141824,35.656416643683684],[139.71791482378688,35.65640307899266],[139.71824454840714,35.65706013630185],[139.7196556174615,35.65656878497054],[139.72016234654188,35.65640223742962],[139.72073735661616,35.6562148397067],[139.72141678237594,35.65599166157982],[139.7220912320852,35.65577018762483],[139.72210227631635,35.65577019782565],[139.7221168515773,35.655772464724045],[139.72213340305592,35.655783206371325],[139.72218570963395,35.655814352096975],[139.7224116740148,35.655974824916356],[139.72277885430478,35.65624557505383],[139.7228704263961,35.65631506495724],[139.7228900659022,35.65632914441968],[139.72289337596828,35.65633149103019],[139.72292967601638,35.656357483913375],[139.72294556977914,35.65636479962018],[139.7229566132243,35.656365440704505],[139.722961478179,35.65636147911306],[139.72296701273663,35.656352470434946],[139.72296636632362,35.656340661829766],[139.72295570028697,35.656226267563326],[139.72293961918894,35.656034079662376],[139.7229359943038,35.65601974447601],[139.72293083103824,35.655999729216305],[139.72292324151164,35.655977187881795],[139.72289394146205,35.6559207349367],[139.7228906368731,35.655914422280695],[139.72288689175568,35.655907207845516],[139.722836102788,35.6558163927857],[139.72276328139174,35.65568499559706],[139.72255171210261,35.65533741118985],[139.72225772804202,35.65485003725007],[139.7219739967314,35.654378355967175],[139.72186415003992,35.654189416219154],[139.72179813600093,35.65408894188892],[139.7217067593376,35.653960861930095],[139.7216923324871,35.65393155385818],[139.72168264125884,35.65391180475363],[139.72167451036765,35.65388187155313],[139.72165962469398,35.6537855007227],[139.7216494957317,35.65368354577252],[139.72164832795343,35.653649743111714],[139.72165732373247,35.65361369643685],[139.72166785699685,35.65358387067702],[139.72168248052012,35.653551164306705],[139.72172567860264,35.653460075289196],[139.72173123190595,35.65343754604917],[139.72172921268375,35.65338066738716],[139.72172781311906,35.65327529529874],[139.7217299507041,35.653247084227296],[139.72175001836894,35.65311144581094],[139.72176682383633,35.65301852956552],[139.7217814754145,35.65296554225688],[139.7217993565021,35.652893268500485],[139.72182042473136,35.652832174748234],[139.72183782992929,35.652784417958706],[139.72188908025979,35.652699916366146],[139.72195381855485,35.65260488113053],[139.72196145366345,35.6525941618218],[139.7219614614212,35.65258857330042],[139.72195804410174,35.65258406326242],[139.72180432841958,35.65257391574674],[139.72175457658065,35.65253384858925],[139.72169534545242,35.65248061254113],[139.7216828009536,35.6524479711162],[139.72172895891202,35.652451619399756],[139.72210548975738,35.652496585815896],[139.72212275296988,35.6520730453528],[139.72213916348124,35.651627149952155],[139.72214437046603,35.65145589336988],[139.72216360637424,35.651122672503924],[139.72217028547954,35.65108446033482],[139.72217894705344,35.651050125910714],[139.7221919271018,35.65100750281344],[139.72229907971774,35.6507465632035],[139.72231259848422,35.65071358530931],[139.7224368577138,35.65038001043277],[139.72265261487885,35.64984343951809],[139.72270733575422,35.64972279554483],[139.7227492168238,35.64962341223024],[139.72279974166798,35.64950222353206],[139.7228384347052,35.64939211088167],[139.72287384019583,35.64926342685448],[139.72289992216847,35.64916889641988],[139.72290325166406,35.64915691117056],[139.7229078021261,35.64914042015997],[139.72291604847976,35.64908643529149],[139.72291943353596,35.64903406844252],[139.7229145245794,35.64899007678755],[139.72290353437452,35.64895148781331],[139.72290023714143,35.64894003731332],[139.72289990757943,35.64893877508455],[139.72288317624475,35.648899189330294],[139.72285619105747,35.648847696003386],[139.7228347197205,35.64880188639852],[139.7228037776456,35.648736868786465],[139.72277626287942,35.64866906004572],[139.72275372681173,35.64859458568529],[139.72272999553607,35.648505958615935],[139.7227211391105,35.64844168235976],[139.72272138631635,35.648422573411224],[139.72272189340126,35.64837516148822],[139.72273182647106,35.648299274732246],[139.72275280432928,35.648222226326155],[139.72277786713082,35.64814590276602],[139.72280345112767,35.648092023946795],[139.72283522460097,35.64803427488217],[139.7228746200413,35.647974910321565],[139.7229016113694,35.64794149401211],[139.72290493002157,35.64793735072392],[139.72290891237887,35.647932396805494],[139.7229738078328,35.64787999618463],[139.72304056504916,35.64783886443686],[139.7230551555004,35.64766833739861],[139.7230803497727,35.647415614537096],[139.72308245637942,35.647409487106145],[139.72308600093913,35.64740164837629],[139.72309164058726,35.64739606500483],[139.72317957826385,35.64737081678466],[139.72321134499492,35.64731757448913],[139.72324233471238,35.64726721587894],[139.72329420960693,35.64720678092719],[139.72333756435208,35.64715868702855],[139.72341585715242,35.64707988806727],[139.72350375389948,35.64700353152812],[139.72360623416043,35.646922140502184],[139.72370372651426,35.64685417535705],[139.72389030256818,35.64672959453071],[139.7235699513299,35.64640210335192],[139.7232719841827,35.646100591406544],[139.72323326120073,35.64599266124113],[139.7232129873135,35.64595983259977],[139.7231945767528,35.645937191214095],[139.72317142556147,35.645908866817315],[139.72312420897543,35.64587466145077],[139.7231002671209,35.64585922600194],[139.7230818465844,35.645843885740014],[139.72291725490706,35.6456414660575],[139.72290910032333,35.645629019584355],[139.7229081093208,35.6456269455096],[139.72290480614475,35.64561991174353],[139.72290381526648,35.645617747531176],[139.7229048202845,35.645609636062915],[139.72290816811062,35.645584220311164],[139.72291207452514,35.64555411791278],[139.7229128560805,35.64554789913046],[139.72291076178865,35.64554510294293],[139.72290822293138,35.645544379514064],[139.72290491144852,35.64554338496377],[139.72277576157123,35.64550612977056],[139.7229051299929,35.64538456259797],[139.7229084470505,35.645381500958386],[139.7229806498765,35.645313693467706],[139.72298629483822,35.64530414404661],[139.7229799528606,35.64525843843863],[139.72294290866432,35.645134825748904],[139.72293524779303,35.64508461204502],[139.72291156414826,35.64504222562979],[139.72290892083254,35.64503717549688],[139.72290561668834,35.64503086283067],[139.72288799517364,35.64499677463394],[139.72286761646185,35.644960160050964],[139.72284955773648,35.64492282649102],[139.72282201278662,35.64471746759858],[139.72281982658697,35.644701240810974],[139.722513260557,35.64455583748265],[139.72235247392422,35.64447952310424],[139.72238699673377,35.644429167945134],[139.7222537964145,35.6443678416954],[139.72217085915744,35.64437272275404],[139.72213497000487,35.64437305017751],[139.72209301925685,35.644364808912606],[139.72205990339546,35.644356034969135],[139.72202125283485,35.644356900633724],[139.72154481127035,35.644479677602206],[139.72137357441437,35.64437522926171],[139.72128664405992,35.64431367452929],[139.72124218194688,35.644285149653626],[139.72107743180504,35.64420161886817],[139.72097479811174,35.64415663460688],[139.72092118345122,35.64388256601979],[139.72109440898652,35.643827202744966],[139.7211506490171,35.643803458788064],[139.72116115194396,35.64379454493845],[139.72117310060764,35.64377833128135],[139.72117952885915,35.64376148151914],[139.72118110076792,35.6437429146188],[139.72117912973138,35.64373101460853],[139.72111938434207,35.643655603854626],[139.72091976889587,35.64339455924248],[139.7208524223493,35.64330652198083],[139.7206868863786,35.64307651615709],[139.72047373719585,35.64278300855265],[139.72038952907647,35.64267197010962],[139.72033573695356,35.642604496655196],[139.72003837169694,35.642286301631586],[139.7198207816435,35.64209094863006],[139.71958276192856,35.64189728855555],[139.71940536978582,35.641778499669435],[139.71907041812472,35.6415725782625],[139.71774664843687,35.64158636825354],[139.71731456777405,35.64158342900023],[139.71718272840687,35.641655862805095],[139.71703556182095,35.64171322866864],[139.7167627590209,35.64175298611424],[139.7165051336683,35.641910297240756],[139.71630255379145,35.642105248730104],[139.71625053709937,35.64211015575401],[139.71617695124215,35.64214010006145],[139.71583942179515,35.64241739543044],[139.71572272393408,35.642554200712674],[139.71551137439408,35.64247728697948],[139.7143669008368,35.64242820880463],[139.7133818858654,35.64237585342458],[139.71290133429048,35.642366720694234],[139.71240203291975,35.64234287477865],[139.7120556641275,35.642322245552556],[139.71166839744913,35.64225596435108],[139.7115645172196,35.64223711073864],[139.71134153201535,35.64219046419414],[139.71120987280423,35.64214030435584],[139.71099867288532,35.64211367969463],[139.7104807208986,35.64201192789656],[139.71037123597768,35.64168759085079],[139.71032437836283,35.64164049112402],[139.7102805196368,35.64165405712096],[139.7102099258439,35.64167588844644],[139.7089032153866,35.6420801653544],[139.70874286927642,35.64215841940669],[139.70843938581172,35.64232549082205],[139.70764392997626,35.642865219149826],[139.70758212515025,35.64291464023228],[139.70746950329186,35.64297779925894],[139.70736340197467,35.6430373594915],[139.70686954096496,35.643343580525794],[139.70668003030468,35.64349670559776],[139.7066061407747,35.643576039174185],[139.7065213648273,35.64362633691179],[139.70655862771844,35.64366495506186],[139.7064614564727,35.64373263628077],[139.7062815484761,35.64381771688612],[139.70604408924308,35.643984311007635],[139.70603472075956,35.6439731240358],[139.7059858469478,35.64394476914496],[139.70531326566584,35.64434480823752],[139.705272192287,35.64441065520719],[139.70526732085855,35.64441858214211],[139.70525846400116,35.64443281447548],[139.70524807281998,35.64443974402601],[139.70496706738874,35.64462756217578],[139.70481066102718,35.6447224906166],[139.70465724796935,35.64480985048715],[139.70425859929367,35.64501953482062],[139.70391809554664,35.64525929614964],[139.70380148120495,35.645329207749555],[139.70355291575893,35.64552904575443],[139.7029524079021,35.64600396340739],[139.70289039508148,35.64604220475933],[139.70237075395332,35.646357302861624],[139.70221232779767,35.6464679096456],[139.70200680539656,35.64661073414753],[139.70192165930717,35.64668103876517],[139.70165153283284,35.6470266017978],[139.70160693595307,35.64708352000732],[139.70158265212658,35.64714415606333],[139.70158143250896,35.64714712927061],[139.70154694700247,35.64723335324191],[139.7014763446043,35.64725599065025],[139.70109798918062,35.64740204947646],[139.70098900668677,35.64746124032558],[139.7008190977333,35.64756813699266],[139.7008158919614,35.647570116493036],[139.7008008577226,35.64757956439998],[139.70050362899283,35.647748335128746],[139.70039886796144,35.64779184615157],[139.7002792015804,35.64783353786584],[139.70017442012374,35.64788921724659],[139.69953078798338,35.64830872544569],[139.69942771469042,35.648398928768124],[139.69911971013778,35.64866836776211],[139.6990766639941,35.64872087000244],[139.6990984444356,35.64877182201726],[139.69899882154297,35.648845263218526],[139.69864303460344,35.649091842858425],[139.6982455204443,35.64939281773936],[139.69801350792412,35.6495841897821],[139.69757120765286,35.649983181757676],[139.69735000049727,35.650182767197855],[139.69717920465126,35.65035050052502],[139.6969366564189,35.65056484362441],[139.6968813659324,35.650607686475006],[139.6968625984046,35.65060387943361],[139.69682957003067,35.65060870943309],[139.6967079507487,35.65062632863152],[139.69661891070393,35.650643443867324],[139.69650831593452,35.65067216229725],[139.6963770476975,35.650713746789556],[139.69630443447753,35.6507471953685],[139.6962573500845,35.650769946591836],[139.69618340768764,35.65080564702352],[139.69611407977297,35.650855233850436],[139.69607748647792,35.65087808709263],[139.69607459696036,35.65088872003108],[139.696081432396,35.65089548813739],[139.69616796584899,35.650988248123575],[139.69607913308587,35.651077563374045],[139.6959793736095,35.651162990182144],[139.6958587032192,35.651270747151514],[139.69577962171178,35.65134051345853],[139.69576709823184,35.65136627849332],[139.69570404031847,35.651429933697386],[139.6954749240553,35.65159985134654],[139.69568958567928,35.65174449720555],[139.69514620371956,35.65221222961892],[139.69394526826846,35.65331466983458],[139.69340966677052,35.65380529819961],[139.69340137060283,35.653812860111394],[139.6933805787308,35.653829601528386],[139.69312344421647,35.65403679898815],[139.69281485545656,35.654363097640996],[139.69247127233703,35.65474208499114],[139.69213268900447,35.65516497415116],[139.6918868080435,35.65543708109648],[139.6916630087387,35.65571209790231],[139.6914338199222,35.65603614271264],[139.69075541605807,35.65681800508447],[139.69060797221883,35.65700495579891],[139.69043233646656,35.65726957136166],[139.69020247651198,35.65759307211309],[139.69005558588324,35.65777794962036],[139.68965229836832,35.65823870242852],[139.68961133499047,35.65829363738537],[139.68959152112336,35.658318221257524],[139.68954727999875,35.65835323190654],[139.68947714538098,35.65841561339126],[139.68944785605942,35.6584273864047],[139.68939442356987,35.65841434276314],[139.68932264771013,35.65840650513532],[139.68925322282345,35.658442567207246],[139.68915472349613,35.65855512111372],[139.68902230914756,35.65873334448689],[139.68899745483984,35.658796861587696],[139.6889731244978,35.65887606322286],[139.688917883283,35.65900867928097],[139.68887433620174,35.65908722688547],[139.68879951454974,35.65917574219643],[139.68874111667228,35.659282394801004],[139.68869720135643,35.659381222814446],[139.68866024508583,35.65947951834587],[139.68857974121232,35.65959506791194],[139.68852595696163,35.659715336698824],[139.68843930535917,35.659809966894194],[139.68835383933074,35.65985961988524],[139.6882854600149,35.65992732087805],[139.68821012138218,35.659995554269365],[139.68819591374256,35.66003438637012],[139.6882154937457,35.66007848715812],[139.68836773324284,35.660177641385964],[139.68831237234178,35.660314313174545],[139.688149801659,35.66073605046326],[139.68802393988778,35.661013071149895],[139.6880005351102,35.661068206990784],[139.68790020626687,35.66115146295662],[139.6877847284329,35.661244164954965],[139.68736540009576,35.66158077124063],[139.68723929316954,35.661686980431085],[139.68706797453834,35.66175293331124],[139.686932522301,35.661895726601244],[139.68692267524992,35.66190499877969],[139.68683692933394,35.66198520690361],[139.6866551904343,35.6620713372875],[139.68652898958712,35.66210723845762],[139.68594413487673,35.662236141608645],[139.68577883343133,35.662272174403554],[139.68537052496094,35.66255515543888],[139.68511687986847,35.66264083456885],[139.68479591471123,35.66275581492533],[139.684291204,35.66296394945478],[139.68414873238143,35.66301695408154],[139.68402759043428,35.66306322468463],[139.6838726822119,35.663092146889475],[139.68357947127782,35.663070510204314],[139.68324685320434,35.66303593405582],[139.68296247087602,35.6630185433273],[139.68267523610388,35.66304973239323],[139.682631267167,35.66305445465676],[139.68242410575147,35.66308799673718],[139.6822141446422,35.66314181585198],[139.681940600831,35.663233863056576],[139.68192246315158,35.66324627920746],[139.68190211352436,35.663260224909045],[139.6818880678508,35.663269851942395],[139.68119164025467,35.66357318764131],[139.68060688658392,35.66381293387462],[139.68015469206347,35.66392755504593],[139.67990630186824,35.663974831348106],[139.67964897656847,35.66401587625819],[139.67941465544342,35.66404126612667],[139.67892085762685,35.66407731985598],[139.67870103436823,35.66408776412689],[139.6786978308671,35.664087940287935],[139.67771050698184,35.664132998991704],[139.67708493312514,35.66411398118755],[139.67546374277092,35.66403164454159],[139.67526283056506,35.66403002892399],[139.6751214565228,35.66402659832402],[139.67511758424965,35.664029838180404],[139.67511426246526,35.664033980133226],[139.675106613788,35.66404785123237],[139.67509390025324,35.66405360331601],[139.67507643846085,35.66405871819699],[139.67504715298048,35.664066431517156],[139.67487912453595,35.66413660779175],[139.67486486194846,35.664143709872725],[139.67477784762139,35.66418776262559],[139.67472155877243,35.66422203082016],[139.67466768452184,35.66426405397965],[139.67461379612146,35.6643131979447],[139.67456708394823,35.66436397381848],[139.67440195109077,35.66458882888415],[139.67437250933756,35.66461952684963],[139.67420782716258,35.664895039404755],[139.67411388998383,35.665087358403916],[139.6737788798399,35.66564225094363],[139.67374459494442,35.665719633455204],[139.67371918664242,35.66577683696651],[139.6736942240755,35.66583205804214],[139.67364784671568,35.66593583472078],[139.67346080165643,35.666400334434755],[139.67335770974998,35.66663960216429],[139.67331257511324,35.66672904852107],[139.67319635121555,35.666961628487755],[139.67316505942765,35.66703306573564],[139.6731412504362,35.66711866448226],[139.67311818092045,35.66722111987796],[139.6731142833779,35.66723688871609],[139.67304636787296,35.667560301018725],[139.67284053293008,35.66841335636663],[139.6728293561695,35.668478690983356],[139.67280756319283,35.66860521464486],[139.67274353477646,35.669082406033866],[139.67269368047934,35.66943144109813],[139.67267152266277,35.669519295350014],[139.6726577171189,35.66957335927554],[139.67264106666315,35.66961389881608],[139.67258656075293,35.669693146838746],[139.67256183101668,35.669741427384444],[139.67254995797165,35.66976818229188],[139.67253806436537,35.670025508225805],[139.67253703737043,35.67031728108165],[139.6725417907057,35.67042572251823],[139.67256843698328,35.670909164044595],[139.6726345571379,35.67159411488868],[139.67270130790283,35.671854610357755],[139.67273107669115,35.67193802698461],[139.6728338944043,35.672171168756265],[139.67285523469968,35.6722160855274],[139.67287426518027,35.672256041670224],[139.67302417299362,35.67258416048249],[139.6729193330929,35.6725330032023],[139.6727403445817,35.67210902962691],[139.67182077890965,35.671972323460196],[139.67117286626956,35.67188149570978],[139.67095587993242,35.67184370621506],[139.67080137211207,35.67182790402102],[139.67056392369764,35.67180315609343],[139.67039287389338,35.671773810431965],[139.67024656816744,35.6717444980439],[139.67015547621904,35.67172427403569],[139.6700699077012,35.67170396731061],[139.66998157285227,35.6716860003393],[139.66990149086945,35.671683728379094],[139.66985742014987,35.67168150526165],[139.6698187393723,35.671690466461314],[139.66978558638326,35.67169718172658],[139.6693940137944,35.6716857426364],[139.66912032447013,35.67166562964997],[139.66896853299036,35.67161837092366],[139.66885274894761,35.671519242165026],[139.6687066889647,35.67163973628109],[139.66850142200195,35.67170534576183],[139.66845141035347,35.671691396160355],[139.66836904854398,35.67166974055996],[139.66831988187877,35.671674630737485],[139.6682453370772,35.67166560497359],[139.668129321696,35.67167914671166],[139.66802724815562,35.671681350190866],[139.66790022351495,35.67167684915257],[139.66776228622552,35.67166106582475],[139.66763804186007,35.67164755461241],[139.66737586487702,35.671616096215],[139.66719518351513,35.67159772947606],[139.66697282782314,35.67159354657426],[139.66657262087668,35.67159128037521],[139.66612536538787,35.6715846209359],[139.66607853530584,35.67158140109451],[139.66605655601387,35.67157992836736],[139.66595980325448,35.67157330403969],[139.66541606391945,35.67153721322218],[139.66412973130662,35.67142229033193],[139.66405528341198,35.67142002240097],[139.66390527347602,35.67141999169347],[139.66380654810786,35.671458341324374],[139.66370489214464,35.671419889849396],[139.66351699300955,35.671419895413386],[139.66336510500474,35.671419951521464],[139.66325749894008,35.671426650008115],[139.66298427229484,35.6714498797243],[139.66269447421885,35.67147389657225],[139.66178342931056,35.671548137026704],[139.661717155689,35.67154587929573],[139.66168410753673,35.67155493604627],[139.66165371070062,35.67156390643073],[139.661626060781,35.67157973115162],[139.6616067966404,35.671599984548585],[139.6615790889627,35.67164276019787],[139.66148787207487,35.671836515156976],[139.66147119135027,35.67188832023552],[139.66146014428287,35.671940133352805],[139.66145180566798,35.672016738062254],[139.66145181351968,35.67206460092128],[139.66145172771903,35.672104621710844],[139.6614571152229,35.67221946417877],[139.66148722459042,35.672602409913026],[139.66148207517952,35.672634130851606],[139.66147460149082,35.6727194800946],[139.66147055208387,35.67275336589436],[139.6614685463157,35.67276147537759],[139.6614234144906,35.67294484010745],[139.66155564862098,35.673251224807935],[139.6616080858693,35.67331881234597],[139.6617018226308,35.67344504789652],[139.66173759898652,35.673503597909715],[139.66180371927658,35.67368153275124],[139.66180650944628,35.67371984502136],[139.66178985264,35.67376038301605],[139.66172627490883,35.673942820176556],[139.66169847914136,35.674077986299515],[139.66166802723563,35.67421540205502],[139.66164592337333,35.674271796399836],[139.66162375264537,35.67430781964742],[139.6615961882946,35.6743348214823],[139.6615685279424,35.67435506288712],[139.6614695514009,35.67440530832288],[139.66146634435952,35.674406926214026],[139.66139724800283,35.67448353428526],[139.66138148365937,35.674519837046034],[139.66137343716636,35.67456309138777],[139.661374211087,35.674614290395134],[139.66156236776573,35.67480691164213],[139.66160997091248,35.674862594163365],[139.66164869862396,35.67493602102835],[139.66169061011465,35.67501873654471],[139.66169766802133,35.67507598369291],[139.66172792600503,35.67518410125664],[139.6617602113618,35.675222455551854],[139.66182728476974,35.675317014834526],[139.66180436673326,35.67539242697477],[139.6617746614227,35.675490543998],[139.66177073153364,35.675520193517045],[139.66177586185782,35.67554904471114],[139.66178829357597,35.67557303890219],[139.66180075095417,35.67558504488916],[139.66183750001935,35.6756024937046],[139.66189600905943,35.6756211452761],[139.66187380413592,35.67567303264856],[139.663002635875,35.676116667340764],[139.66326480242017,35.6762112312309],[139.6633862149052,35.67626079780885],[139.66351313196137,35.67631938574091],[139.66376428673806,35.67645007799845],[139.6639243076431,35.67652664940078],[139.6640256128741,35.67657735882258],[139.66404580769134,35.67658748257614],[139.66416726403176,35.676616767573265],[139.66424729372395,35.67664608441582],[139.66443219061844,35.67671358622358],[139.66455634738494,35.67677216918142],[139.66469981306378,35.67684204619622],[139.66486543498328,35.67688256934058],[139.66505588470247,35.67693664752754],[139.66511108265777,35.67695466194736],[139.6651552193296,35.67697942117622],[139.66521600411056,35.67701997763163],[139.66528494493747,35.677069559151946],[139.66533456279151,35.67711460681675],[139.66539804364706,35.67718662479589],[139.66562146102316,35.67742994587296],[139.66565183831503,35.677483980314186],[139.6656958717645,35.67755831461221],[139.6657317889981,35.677657425301646],[139.66582822612713,35.67787145486792],[139.66590807180958,35.6780426461544],[139.6659412066395,35.67809893777977],[139.6659770890348,35.678162083634646],[139.6660238943886,35.678231914802886],[139.66606260005693,35.678265679858534],[139.66615633801464,35.67834449974038],[139.66619502499762,35.678387278437214],[139.66623909702574,35.678443585160075],[139.66628326549977,35.678506652282714],[139.66633564800108,35.67860407301649],[139.6663615379218,35.67863836102071],[139.66639920038307,35.67874883118944],[139.6665189682842,35.67884823812888],[139.66658314177195,35.6788540056605],[139.6669196349913,35.679178604207046],[139.66758521980964,35.67977821285233],[139.66744386938623,35.67991024927862],[139.66764170676808,35.68002896182482],[139.66791652632472,35.680210965926335],[139.66820867328866,35.680402006869556],[139.66830284593138,35.68032560961169],[139.66834573024394,35.680316113855376],[139.66850511653053,35.680331114643884],[139.66863130119953,35.68037473339734],[139.6689102714387,35.68058152859761],[139.66896951621695,35.68062108952886],[139.66909295464924,35.680657402945364],[139.6692322971815,35.68069599134007],[139.66937510039136,35.68071709769439],[139.66950421601925,35.680732596756634],[139.6697103423324,35.680798136301114],[139.66974699699668,35.680809723654804],[139.6706454587774,35.68115923068755],[139.67119415276943,35.681400907238455],[139.6713967625029,35.68151340056632],[139.67169749152458,35.68183793754664],[139.6716849416983,35.68187055031247],[139.67168898393544,35.681893090004],[139.6718507530456,35.682043295147935],[139.67210618970282,35.682257893260314],[139.67243463571037,35.6825368561337],[139.67286844270154,35.682890411772625],[139.67302959733007,35.68301853091869],[139.67322858599996,35.68317725662244],[139.67332708127185,35.68325914185911],[139.67340084230975,35.68327907001444],[139.6734622377146,35.68329492553827],[139.67356009744526,35.68336328918358],[139.673765277331,35.683465326013824],[139.6738815066778,35.68351893126791],[139.6740095796244,35.68356146522792],[139.67411916558396,35.683622542834286],[139.67421424636493,35.68369991597372],[139.6743745686532,35.68385967030509],[139.67450044276393,35.68400865267123],[139.67461802571762,35.68416041822054],[139.67466816635095,35.68422529283312],[139.6747322377102,35.68428513810334],[139.67483903429357,35.684360813572425],[139.6748974925356,35.68440992505813],[139.6749592364743,35.684529527989376],[139.67497509133645,35.68455713077382],[139.675252290545,35.68466926497368],[139.6752148276073,35.68473005826608],[139.675272405234,35.684833791444134],[139.67535004067258,35.68496296955398],[139.67542252258283,35.685072400845584],[139.67548892725875,35.6851822748093],[139.67556461337918,35.68529180034985],[139.67562880132192,35.68540545708232],[139.67576046991653,35.685644132011376],[139.67582723815977,35.68573814214209],[139.67590197518567,35.68582513196892],[139.67609861974123,35.686002508164776],[139.67630075227237,35.686198819963565],[139.6763153147923,35.686209745534306],[139.67650187004088,35.68634961091241],[139.67699192226138,35.68671863820017],[139.67721039544782,35.68686602528686],[139.67735139588953,35.68696860367591],[139.6774371996702,35.68704767481846],[139.67755479289914,35.68714247087305],[139.67773869365496,35.68728602649974],[139.6780310669757,35.6874996681203],[139.67817835524087,35.68760847309549],[139.6783993031237,35.68773549024055],[139.67844851095253,35.687771247802125],[139.67865180694045,35.687942499025745],[139.67865522645207,35.6879453878025],[139.6791699232595,35.68837897588352],[139.6793140746112,35.688511932147755],[139.67940107032726,35.68860506476652],[139.67954363481283,35.688759291046665],[139.6796269809925,35.68885449198697],[139.67965774620802,35.68888625947436],[139.67968413221092,35.68889701945221],[139.67974308619821,35.68892134152355],[139.6797615072539,35.68893722912932],[139.6797712141159,35.688945624249065],[139.67986635172235,35.68905715485151],[139.67987925015953,35.68907213402908],[139.67993348980303,35.689135118753434],[139.67999861110883,35.68922777237265],[139.68004970726972,35.68931689275714],[139.6801044472501,35.689407279674114],[139.6801901669402,35.68953312980151],[139.68038065010586,35.68970661518927],[139.68049406434432,35.68979500330673],[139.68081014073059,35.69004472297871],[139.68090999898348,35.69011560695718],[139.6811314862475,35.69025541917756],[139.6812492029377,35.69040636705568],[139.68138934664776,35.69055887545188],[139.6816258716352,35.69063560987614],[139.68180953394435,35.69067964773834],[139.68190827679956,35.690815428074856],[139.6819794578105,35.69086067619431],[139.6822343649499,35.69103378891476],[139.6824180922638,35.69116129272939],[139.68259618732242,35.691287617429296],[139.6826225617948,35.69130513701563],[139.6826826945284,35.69135037088449],[139.68270829000969,35.691370863995765],[139.6827780864468,35.69144783810679],[139.68279120831974,35.69146200601459],[139.68281415258014,35.69148222537683],[139.68283037364193,35.69149351277356],[139.68283037330326,35.691493693046986],[139.6828691104029,35.69151789816667],[139.6829766718716,35.6916073582527],[139.68304626097793,35.69167730126655],[139.6832488325292,35.69189189959537],[139.68337573776003,35.69203681764211],[139.68349461756605,35.69210123329372],[139.6835306240353,35.69210875946957],[139.68363004075303,35.69212294450124],[139.68374826492,35.69212444351632],[139.68391344644468,35.69212699221448],[139.68412314745822,35.69213437313153],[139.68422787062772,35.692147122055886],[139.68433657742062,35.69215672102753],[139.68439569364187,35.69215526185324],[139.68450422301905,35.692141424854526],[139.68450909723708,35.69213467061134],[139.68450759103507,35.69211276547732],[139.68446389244744,35.69202293507133],[139.68422848563665,35.6918166808568],[139.68424950960937,35.69180030197451],[139.68454430655254,35.691619581606076],[139.68466354155498,35.691552306493435],[139.68499524004827,35.691371991125465],[139.68483756196622,35.69125642145361],[139.68482786064183,35.691244601547936],[139.6848000240584,35.69118111080284],[139.68473076049204,35.691054202653085],[139.6846532664762,35.69095657880169],[139.68461027401852,35.690903254765004],[139.68461155416833,35.69086837335062],[139.68459426756863,35.69083581255804],[139.68449135358742,35.69080170373338],[139.68446083517236,35.690754614513295],[139.6843938015838,35.69061734317086],[139.68436485931932,35.690554572046764]]]},"properties":{"city_code":"13113","city_name":"渋谷区","prefecture_code":"13","prefecture_name":"東京都"}}],"name":"13113_shibuya-ku_pref_2023_border","type":"FeatureCollection"}